original_address,lat,lon,formatted,postcode,city,county,state,state_code,country,country_code
"Albany, NY 12222",42.6511674,-73.754968,"Albany, NY, United States of America",,Albany,Albany County,New York,NY,United States,us
"Ames, IA 50011",42.02640382,-93.64542714,"Ames, IA 50011, United States of America",50011,Ames,Story County,Iowa,IA,United States,us
"Amherst, MA 01003",42.39006521,-72.52671956,"Amherst, MA 01003, United States of America",01003,Amherst,Hampshire County,Massachusetts,MA,United States,us
"Ann Arbor, MI 48109",42.28324982,-83.72826274,"Ann Arbor, MI 48109, United States of America",48109,Ann Arbor,Washtenaw County,Michigan,MI,United States,us
"Arcata, CA 95521",40.866517,-124.08284,"Arcata, CA 95521, United States of America",95521,Arcata,Humboldt County,California,CA,United States,us
"Asheville, NC 28804",35.63791799,-82.56445064,"Asheville, NC 28804, United States of America",28804,Asheville,Buncombe County,North Carolina,NC,United States,us
"Athens, GA 30602",33.9597677,-83.376398,"Athens, GA, United States of America",,Athens,Athens-Clarke County,Georgia,GA,United States,us
"Athens, OH 45701",39.3289242,-82.1012479,"Athens (Athens), OH 45701, United States of America",45701,Athens,Athens County,Ohio,OH,United States,us
"Atlanta, GA 30332",33.77241286,-84.39263094,"Atlanta, GA 30332, United States of America",30332,Atlanta,Fulton County,Georgia,GA,United States,us
"Auburn, AL 36849",32.59703504,-85.49509281,"Auburn, AL 36849, United States of America",36849,Auburn,Lee County,Alabama,AL,United States,us
"Augusta, GA 30904",33.47526536,-82.00915834,"Augusta, GA 30904, United States of America",30904,Augusta,Richmond County,Georgia,GA,United States,us
"Augusta, ME 04330",44.3169922,-69.7734278,"Augusta, ME 04330, United States of America",04330,Augusta,Kennebec County,Maine,ME,United States,us
"Azusa, CA 91702",34.12706795,-117.9063087,"Azusa, CA 91702, United States of America",91702,Azusa,Los Angeles County,California,CA,United States,us
"Baltimore, MD 21210",39.35509687,-76.63386451,"Baltimore, MD 21210, United States of America",21210,Baltimore,,Maryland,MD,United States,us
"Baltimore, MD 21217",39.3066798,-76.64006896,"Baltimore, MD 21217, United States of America",21217,Baltimore,,Maryland,MD,United States,us
"Baltimore, MD 21251",39.34486675,-76.58445685,"Baltimore, MD 21251, United States of America",21251,Baltimore,,Maryland,MD,United States,us
"Baton Rouge, LA 70803",30.40957027,-91.17988389,"Baton Rouge, LA 70803, United States of America",70803,Baton Rouge,East Baton Rouge Parish,Louisiana,LA,United States,us
"Beaumont, TX 77710",30.04299075,-94.0743157,"Beaumont, TX 77710, United States of America",77710,Beaumont,Jefferson County,Texas,TX,United States,us
"Beirut, Lebanon 1107 2020",33.85232175,35.5483637,"Baabda 11072020, Lebanon",11072020,Baabda,,Mount Lebanon Governorate,,Lebanon,lb
"Bellingham, WA 98225",48.74970809,-122.4795537,"Bellingham, WA 98225, United States of America",98225,Bellingham,Whatcom County,Washington,WA,United States,us
"Bemidji, MN 56601",47.4785418,-94.8907869,"Bemidji (Bemidji), MN 56601, United States of America",56601,Bemidji,Beltrami County,Minnesota,MN,United States,us
"Birmingham, AL 35294",33.49970662,-86.81193706,"Birmingham, AL 35294, United States of America",35294,Birmingham,Jefferson County,Alabama,AL,United States,us
"Blacksburg, VA 24060",37.23192863,-80.43108514,"Blacksburg, VA 24060, United States of America",24060,Blacksburg,Montgomery County,Virginia,VA,United States,us
"Bloomington, IN 47405",39.16793776,-86.51958811,"Bloomington, IN 47405, United States of America",47405,Bloomington,Monroe County,Indiana,IN,United States,us
"Bluffton, SC 29909",32.2930321,-80.92819548,"Beaufort County, SC 29909, United States of America",29909,,Beaufort County,South Carolina,SC,United States,us
"Boston, MA 02115",42.34680114,-71.08978708,"Boston, MA 02115, United States of America",02115,Boston,Suffolk County,Massachusetts,MA,United States,us
"Bozeman, MT 59717",45.66463328,-111.0506779,"Bozeman, MT 59717, United States of America",59717,Bozeman,Gallatin County,Montana,MT,United States,us
"Bridgewater, MA 02325",41.9882957,-70.9635925,"Bridgewater, MA 02325, United States of America",02325,Bridgewater,Plymouth County,Massachusetts,MA,United States,us
"Bristol, RI 02809",41.6770463,-71.2661597,"Bristol, RI 02809, United States of America",02809,Bristol,Bristol County,Rhode Island,RI,United States,us
"Bronx, NY 10471",40.90236941,-73.90299228,"New York, NY 10471, United States of America",10471,New York,,New York,NY,United States,us
"Brooklyn, NY 11201",40.69267861,-73.99170065,"New York, NY 11201, United States of America",11201,New York,Kings County,New York,NY,United States,us
"Buffalo, NY 14260",42.99987799,-78.78568659,"Amherst, NY 14260, United States of America",14260,Town of Amherst,Erie County,New York,NY,United States,us
"Burlington, VT 05405",44.51681341,-73.24149707,"Burlington, VT 05405, United States of America",05405,Burlington,Chittenden County,Vermont,VT,United States,us
"Cambridge, MA 02139",42.36401689,-71.10286191,"Cambridge, MA 02139, United States of America",02139,Cambridge,Middlesex County,Massachusetts,MA,United States,us
"Canyon, TX 79016",34.9799429,-101.919197,"Canyon, TX 79016, United States of America",79016,Canyon,Randall County,Texas,TX,United States,us
"Carrollton, GA 30118",33.5746788,-85.10304839,"Carrollton, GA 30118, United States of America",30118,Carrollton,Carroll County,Georgia,GA,United States,us
"Charlotte, NC 28223",35.30454585,-80.731535,"Charlotte, NC 28223, United States of America",28223,Charlotte,Mecklenburg County,North Carolina,NC,United States,us
"Charlottesville, VA 22904",38.029306,-78.4766781,"Charlottesville, VA, United States of America",,Charlottesville,,Virginia,VA,United States,us
"Chicago, IL 60605",41.87027308,-87.62672444,"Chicago, IL 60605, United States of America",60605,Chicago,Cook County,Illinois,IL,United States,us
"Claremont, CA 91711",34.0966764,-117.7197785,"Claremont, CA 91711, United States of America",91711,Claremont,Los Angeles County,California,CA,United States,us
"Clemson, SC 29634",34.67648199,-82.835712,"Pickens County, SC 29634, United States of America",29634,,Pickens County,South Carolina,SC,United States,us
"College Park, MD 20742",38.98884045,-76.94159405,"College Park, MD 20742, United States of America",20742,College Park,Prince George's County,Maryland,MD,United States,us
"College Station, TX 77843",30.61732089,-96.34264033,"College Station, TX 77843, United States of America",77843,College Station,Brazos County,Texas,TX,United States,us
"Collegeville, PA 19426",40.1856597,-75.451571,"Collegeville (Collegeville), PA 19426, United States of America",19426,Collegeville,Montgomery County,Pennsylvania,PA,United States,us
"Colorado Springs, CO 80918",38.90709907,-104.7738045,"Colorado Springs, CO 80918, United States of America",80918,Colorado Springs,El Paso County,Colorado,CO,United States,us
"Columbia, SC 29208",33.99547334,-81.02803502,"Columbia, SC 29208, United States of America",29208,Columbia,Richland County,South Carolina,SC,United States,us
"Columbus, OH 43210",40.00064886,-83.01539687,"Columbus, OH 43210, United States of America",43210,Columbus,Franklin County,Ohio,OH,United States,us
"Conway, SC 29528",33.82939923,-79.02636993,"Conway, SC 29528, United States of America",29528,Conway,Horry County,South Carolina,SC,United States,us
"Cookeville, TN 38505",36.18150024,-85.51870656,"Cookeville, TN 38505, United States of America",38505,Cookeville,Putnam County,Tennessee,TN,United States,us
"Corvallis, OR 97331",44.56363675,-123.2775662,"Corvallis, OR 97331, United States of America",97331,Corvallis,Benton County,Oregon,OR,United States,us
"Dallas, PA 18612",41.33617,-75.9632636,"Dallas (Dallas), PA 18612, United States of America",18612,Dallas,Luzerne County,Pennsylvania,PA,United States,us
"Dayton, OH 45435",39.7589478,-84.1916069,"Dayton, OH, United States of America",,Dayton,Montgomery County,Ohio,OH,United States,us
"Dayton, OH 45469",39.739209,-84.181231,"Dayton, OH 45469, United States of America",45469,Dayton,Montgomery County,Ohio,OH,United States,us
"Daytona Beach, FL 32114",29.20287128,-81.03875807,"Daytona Beach, FL 32114, United States of America",32114,Daytona Beach,Volusia County,Florida,FL,United States,us
"De Pere, WI 54115",44.43009102,-88.07276516,"Ledgeview, WI 54115, United States of America",54115,Town of Ledgeview,Brown County,Wisconsin,WI,United States,us
"Dearborn, MI 48128",42.3222599,-83.1763145,"Dearborn, Dearborn, MI, United States of America",,Dearborn,Wayne County,Michigan,MI,United States,us
"Decatur, IL 62522",39.83792061,-88.97728199,"Decatur, IL 62522, United States of America",62522,Decatur,Macon County,Illinois,IL,United States,us
"Decorah, IA 52101",43.3041609,-91.7859098,"Decorah (Decorah), IA, United States of America",,Decorah,Winneshiek County,Iowa,IA,United States,us
"Denver, CO 80217",39.7457268,-105.0022957,"Denver, CO 80217, United States of America",80217,Denver,,Colorado,CO,United States,us
"Des Moines, IA 50316",41.60209155,-93.59833827,"Des Moines, IA 50316, United States of America",50316,Des Moines,Polk County,Iowa,IA,United States,us
"Des Plaines, IL 60016",42.0415823,-87.8873916,"Des Plaines, IL 60016, United States of America",60016,Des Plaines,Cook County,Illinois,IL,United States,us
"Detroit, MI 48282",42.42208967,-83.02638102,"Detroit, MI 48282, United States of America",48282,Detroit,Wayne County,Michigan,MI,United States,us
"Doha, Qatar",25.2856329,51.5264162,"Doha, Qatar",,Doha,,,,Qatar,qa
"Dubois, PA 15801",41.118651,-78.7622342,"DuBois (DuBois), PA 15801, United States of America",15801,DuBois,Clearfield County,Pennsylvania,PA,United States,us
"Duluth, MN 55812",46.81151835,-92.07732566,"Duluth, MN 55812, United States of America",55812,Duluth,Saint Louis County,Minnesota,MN,United States,us
"Durham, NC 27708",36.00159039,-78.93476168,"Durham, NC 27708, United States of America",27708,Durham,Durham County,North Carolina,NC,United States,us
"East Lansing, MI 48824",42.72491312,-84.47669151,"East Lansing, MI 48824, United States of America",48824,East Lansing,Ingham County,Michigan,MI,United States,us
"East Peoria, IL 61635",40.7304384,-89.5680195,"Peoria, IL 61635, United States of America",61635,Peoria,Peoria County,Illinois,IL,United States,us
"Edmond, OK 73034",35.67286537,-97.44688065,"Edmond, OK 73034, United States of America",73034,Edmond,Oklahoma County,Oklahoma,OK,United States,us
"Ellensburg, WA 98926",46.9970635,-120.545122,"Ellensburg (Ellensburg), WA 98926, United States of America",98926,Ellensburg,Kittitas County,Washington,WA,United States,us
"Elon, NC 27244",36.1029132,-79.5066895,"Elon (Elon), NC, United States of America",,Elon,Alamance County,North Carolina,NC,United States,us
"Erie, PA 16563",42.1294712,-80.0852695,"Erie, PA, United States of America",,Erie,Erie County,Pennsylvania,PA,United States,us
"Eugene, OR 97405",44.016144,-123.1042244,"Eugene, OR 97405, United States of America",97405,Eugene,Lane County,Oregon,OR,United States,us
"Fairfax, VA 22030",38.84675449,-77.33574189,"Fairfax County, VA 22030, United States of America",22030,,Fairfax County,Virginia,VA,United States,us
"Farmville, VA 23909",37.29905286,-78.39611009,"Farmville, VA 23909, United States of America",23909,Farmville,Prince Edward County,Virginia,VA,United States,us
"Fitchburg, MA 01420",42.5854371,-71.8046023,"Fitchburg, MA 01420, United States of America",01420,Fitchburg,Worcester County,Massachusetts,MA,United States,us
"Fort Lauderdale, FL 33314",26.1223084,-80.1433786,"Fort Lauderdale, FL, United States of America",,Fort Lauderdale,Broward County,Florida,FL,United States,us
"Fort Myers, FL 33965",26.640628,-81.8723084,"Fort Myers, FL, United States of America",,Fort Myers,Lee County,Florida,FL,United States,us
"Frostburg, MD 21532",39.6583325,-78.9284241,"Frostburg, MD 21532, United States of America",21532,Frostburg,Allegany County,Maryland,MD,United States,us
"Fullerton, CA 92831",33.88024978,-117.8980528,"Fullerton, CA 92831, United States of America",92831,Fullerton,Orange County,California,CA,United States,us
"Fulton, MO 65251",38.8467082,-91.9479586,"Fulton, MO 65251, United States of America",65251,Fulton,Callaway County,Missouri,MO,United States,us
"Gainesville, FL 32611",29.64308238,-82.35472921,"Gainesville, FL 32611, United States of America",32611,Gainesville,Alachua County,Florida,FL,United States,us
"Geneva, NY 14456",42.8690271,-76.9786122,"Geneva, NY 14456, United States of America",14456,Geneva,Ontario County,New York,NY,United States,us
"Glassboro, NJ 08028",39.71298556,-75.10798266,"Glassboro, NJ 08028, United States of America",08028,Glassboro,Gloucester County,New Jersey,NJ,United States,us
"Goshen, IN 46526",41.57016692,-85.84850901,"Goshen, IN 46526, United States of America",46526,Goshen,Elkhart County,Indiana,IN,United States,us
"Grand Forks, ND 58202",47.92073469,-97.07430114,"Grand Forks, ND 58202, United States of America",58202,Grand Forks,Grand Forks County,North Dakota,ND,United States,us
"Hamilton, NY 13346",42.8268798,-75.5444159,"Hamilton, NY 13346, United States of America",13346,Hamilton,Madison County,New York,NY,United States,us
"Harrisonburg, VA 22807",38.43357126,-78.86494876,"Harrisonburg, VA 22807, United States of America",22807,Harrisonburg,,Virginia,VA,United States,us
"Hattiesburg, MS 39406",31.32827678,-89.33410539,"Hattiesburg, MS 39406, United States of America",39406,Hattiesburg,Forrest County,Mississippi,MS,United States,us
"Haverford, PA 19041",40.01117194,-75.30713496,"Haverford Township, PA 19041, United States of America",19041,Haverford Township,Delaware County,Pennsylvania,PA,United States,us
"Hays, KS 67601",38.8791783,-99.3267702,"Hays (Hays), KS 67601, United States of America",67601,Hays,Ellis County,Kansas,KS,United States,us
"Hilo, HI 96720",19.7073734,-155.08158,"Hilo, HI 96720, United States of America",96720,Hilo,Hawaiʻi County,Hawaii,HI,United States,us
"Houghton, MI 49931",47.121872,-88.569012,"Houghton (Houghton), MI 49931, United States of America",49931,Houghton,Houghton County,Michigan,MI,United States,us
"Houston, TX 77005",29.7589382,-95.3676974,"Houston, TX, United States of America",,Houston,Harris County,Texas,TX,United States,us
"Huntingdon, PA 16652",40.4847959,-78.0102813,"Huntingdon, PA 16652, United States of America",16652,Huntingdon,Huntingdon County,Pennsylvania,PA,United States,us
"Indianola, IA 50125",41.3604966,-93.5613292,"Indianola (Indianola), IA 50125, United States of America",50125,Indianola,Warren County,Iowa,IA,United States,us
"Ithaca, NY 14853",42.4396039,-76.4968019,"Ithaca, NY, United States of America",,Ithaca,Tompkins County,New York,NY,United States,us
"Johnson City, TN 37614",36.3134398,-82.3534728,"Johnson City, TN, United States of America",,Johnson City,Washington County,Tennessee,TN,United States,us
"Kansas City, MO 64110",39.04349822,-94.56217764,"Kansas City, MO 64110, United States of America",64110,Kansas City,Jackson County,Missouri,MO,United States,us
"Kansas City, MO 64145",38.89424781,-94.59553712,"Kansas City, MO 64145, United States of America",64145,Kansas City,Jackson County,Missouri,MO,United States,us
"Kent, OH 44242",41.14907403,-81.33566358,"Kent, OH 44242, United States of America",44242,Kent,Portage County,Ohio,OH,United States,us
"Knoxville, TN 37996",35.95194706,-83.93292062,"Knoxville, TN 37996, United States of America",37996,Knoxville,Knox County,Tennessee,TN,United States,us
"Kowloon Tong, Kowloon Hong Kong",22.327768,114.175672,"Kowloon Tong, Kowloon, Hong Kong S.A.R.",,Kowloon Tong,Kowloon City,Kowloon,,Hong Kong S.A.R.,hk
"La Crosse, WI 54601",43.79714673,-91.21533286,"La Crosse, WI 54601, United States of America",54601,La Crosse,La Crosse County,Wisconsin,WI,United States,us
"Laie, HI 96762",21.64651614,-157.9254228,"Honolulu County, HI 96762, United States of America",96762,,Honolulu County,Hawaii,HI,United States,us
"Las Cruces, NM 88003",32.3140354,-106.779807,"Las Cruces, NM, United States of America",,Las Cruces,Doña Ana County,New Mexico,NM,United States,us
"Las Vegas, NM 87701",35.5939325,-105.223896,"Las Vegas (Las Vegas), NM 87701, United States of America",87701,Las Vegas,San Miguel County,New Mexico,NM,United States,us
"Lebanon, IL 62254",38.6039375,-89.8073195,"Lebanon, IL 62254, United States of America",62254,Lebanon,Saint Clair County,Illinois,IL,United States,us
"Lexington, VA 24450",37.7840208,-79.4428157,"Lexington, VA, United States of America",,Lexington,,Virginia,VA,United States,us
"Little Rock, AR 72204",34.72858557,-92.34426509,"Little Rock, AR 72204, United States of America",72204,Little Rock,Pulaski County,Arkansas,AR,United States,us
"Los Altos Hills, CA 94022",37.3796627,-122.137463,"Los Altos Hills (Los Altos Hills), CA, United States of America",,Los Altos Hills,Santa Clara County,California,CA,United States,us
"Los Angeles, CA 90089",34.0220987,-118.2868452,"Los Angeles, CA 90089, United States of America",90089,Los Angeles,Los Angeles County,California,CA,United States,us
"Louisville, KY 40292",38.21429413,-85.75900938,"Louisville, KY 40292, United States of America",40292,Louisville,Jefferson County,Kentucky,KY,United States,us
"Lowell, MA 01854",42.64589084,-71.33880606,"Lowell, MA 01854, United States of America",01854,Lowell,Middlesex County,Massachusetts,MA,United States,us
"Manchester, NH 03106",42.9956397,-71.4547891,"Manchester, NH, United States of America",,Manchester,Hillsborough County,New Hampshire,NH,United States,us
"Marietta, GA 30060",33.93770016,-84.54431268,"Marietta, GA 30060, United States of America",30060,Marietta,Cobb County,Georgia,GA,United States,us
"Marquette, MI 49855",46.5434914,-87.396433,"Marquette, MI 49855, United States of America",49855,Marquette,Marquette County,Michigan,MI,United States,us
"Maryville, TN 37804",35.77592775,-83.92904862,"Blount County, TN 37804, United States of America",37804,,Blount County,Tennessee,TN,United States,us
"Meadville, PA 16335",41.641445,-80.151449,"Meadville (Meadville), PA 16335, United States of America",16335,Meadville,Crawford County,Pennsylvania,PA,United States,us
"Memphis, TN 38104",35.13152886,-90.00161888,"Memphis, TN 38104, United States of America",38104,Memphis,Shelby County,Tennessee,TN,United States,us
"Menomonie, WI 54751",44.8765289,-91.9278716,"Menomonie, WI 54751, United States of America",54751,Menomonie,Dunn County,Wisconsin,WI,United States,us
"Middlebury, VT 05753",44.01127352,-73.15378839,"Middlebury, VT 05753, United States of America",05753,Middlebury,Addison County,Vermont,VT,United States,us
"Milwaukee, WI 53201",43.0466253,-87.9060587,"Milwaukee, WI 53201, United States of America",53201,Milwaukee,Milwaukee County,Wisconsin,WI,United States,us
"Mississippi State, MS 39762",32.30053275,-90.17362741,"Mississippi State Fairgrounds, Jackson, MS, United States of America",,Jackson,Hinds County,Mississippi,MS,United States,us
"Mobile, AL 36688",30.7020344,-88.17698847,"Mobile, AL 36688, United States of America",36688,Mobile,Mobile County,Alabama,AL,United States,us
"Monmouth, IL 61462",40.9127103,-90.6472477,"Monmouth (Monmouth), IL 61462, United States of America",61462,Monmouth,Warren County,Illinois,IL,United States,us
"Monmouth, OR 97361",44.8486414,-123.2290777,"Monmouth, OR, United States of America",,Monmouth,Polk County,Oregon,OR,United States,us
"Moorhead, MN 56562",46.862419,-96.7694257,"Moorhead, MN 56562, United States of America",56562,Moorhead,Clay County,Minnesota,MN,United States,us
"Morgantown, WV 26506",39.64595234,-79.9615314,"Morgantown, WV 26506, United States of America",26506,Morgantown,Monongalia County,West Virginia,WV,United States,us
"Moscow, ID 83844",46.72492325,-117.0170962,"Moscow, ID 83844, United States of America",83844,Moscow,Latah County,Idaho,ID,United States,us
"Mt Berry, GA 30149",34.275093,-85.1832843,"Rome, GA 30149, United States of America",30149,Rome,Floyd County,Georgia,GA,United States,us
"Mt Pleasant, MI 48859",43.58884473,-84.77184573,"Mount Pleasant, MI 48859, United States of America",48859,Mount Pleasant,Isabella County,Michigan,MI,United States,us
"Muncie, 47306",40.19780353,-85.41095515,"Muncie, IN 47306, United States of America",47306,Muncie,Delaware County,Indiana,IN,United States,us
"Nashville, TN 37209",36.1622767,-86.7742984,"Nashville, TN, United States of America",,Nashville,Davidson County,Tennessee,TN,United States,us
"Nashville, TN 37212",36.1622767,-86.7742984,"Nashville, TN, United States of America",,Nashville,Davidson County,Tennessee,TN,United States,us
"Nevada, MO 64772",37.8381108,-94.3596185,"Nevada, MO 64772, United States of America",64772,Nevada,Vernon County,Missouri,MO,United States,us
"New Britain, CT 06050",41.68990283,-72.76549255,"New Britain, CT 06050, United States of America",06050,New Britain,Capitol Planning Region,Connecticut,CT,United States,us
"New Haven, CT 06515",41.32649198,-72.96930239,"New Haven, CT 06515, United States of America",06515,New Haven,South Central Connecticut Planning Region,Connecticut,CT,United States,us
"New Orleans, LA 70118",29.95215465,-90.12142212,"New Orleans, LA 70118, United States of America",70118,New Orleans,Orleans Parish,Louisiana,LA,United States,us
"New York, NY 10003",40.7313279,-73.9887488,"New York, NY 10003, United States of America",10003,New York,New York County,New York,NY,United States,us
"New York, NY 10010",40.73983442,-73.98515187,"New York, NY 10010, United States of America",10010,New York,New York County,New York,NY,United States,us
"New York, NY 10019",40.76336768,-73.98609985,"New York, NY 10019, United States of America",10019,New York,New York County,New York,NY,United States,us
"New York, NY 10021",40.77017451,-73.95967469,"New York, NY 10021, United States of America",10021,New York,New York County,New York,NY,United States,us
"New York, NY 10023",40.77699563,-73.98115212,"New York, NY 10023, United States of America",10023,New York,New York County,New York,NY,United States,us
"Newark, DE 19716",39.67674173,-75.75089617,"Newark, DE 19716, United States of America",19716,Newark,New Castle County,Delaware,DE,United States,us
"Newberry, SC 29108",34.2753247,-81.6188633,"Newberry (Newberry), SC 29108, United States of America",29108,Newberry,Newberry County,South Carolina,SC,United States,us
"North Dartmouth, MA 02747",41.6389926,-70.9703171,"North Dartmouth (Dartmouth), MA 02747, United States of America",02747,Dartmouth,Bristol County,Massachusetts,MA,United States,us
"Northridge, CA 91330",34.2345615,-118.5369316,"Los Angeles, CA 91324, United States of America",91324,Los Angeles,Los Angeles County,California,CA,United States,us
"Omaha, NE 68182",41.25733175,-96.01040677,"Omaha, NE 68182, United States of America",68182,Omaha,Douglas County,Nebraska,NE,United States,us
"Orem, UT 84058",40.27842002,-111.7067876,"Orem, UT 84058, United States of America",84058,Orem,Utah County,Utah,UT,United States,us
"Orlando, FL 32816",28.5421109,-81.3790304,"Orlando, FL, United States of America",,Orlando,Orange County,Florida,FL,United States,us
"Palatine, IL 60067",42.10560122,-88.05832275,"Palatine Township, IL 60067, United States of America",60067,Palatine Township,Cook County,Illinois,IL,United States,us
"Pella, IA",41.4073138,-92.9174074,"Pella (Pella), IA 50219, United States of America",50219,Pella,Marion County,Iowa,IA,United States,us
"Philadelphia, PA 19102",39.95056724,-75.16601731,"Philadelphia, PA 19102, United States of America",19102,Philadelphia,Philadelphia County,Pennsylvania,PA,United States,us
"Philadelphia, PA 19122",39.9789644,-75.14039911,"Philadelphia, PA 19122, United States of America",19122,Philadelphia,Philadelphia County,Pennsylvania,PA,United States,us
"Philadelphia, PA 19131",39.98148639,-75.22461134,"Philadelphia, PA 19131, United States of America",19131,Philadelphia,Philadelphia County,Pennsylvania,PA,United States,us
"Pittsburgh, PA 15213",40.44467622,-79.95319345,"Pittsburgh, PA 15213, United States of America",15213,Pittsburgh,Allegheny County,Pennsylvania,PA,United States,us
"Pittsburgh, PA 15222",40.44334167,-79.99717405,"Pittsburgh, PA 15222, United States of America",15222,Pittsburgh,Allegheny County,Pennsylvania,PA,United States,us
"Platteville, WI 53818",42.7342942,-90.4784451,"Platteville, WI 53818, United States of America",53818,Platteville,Grant County,Wisconsin,WI,United States,us
"Pleasantville, NY 10570",41.1328736,-73.7926335,"Pleasantville, NY 10570, United States of America",10570,Pleasantville,Westchester County,New York,NY,United States,us
"Portland, OR 97207",45.5202471,-122.674194,"Portland, OR, United States of America",,Portland,Multnomah County,Oregon,OR,United States,us
"Potsdam, NY 13676",44.6697996,-74.9813349,"Potsdam, NY, United States of America",,Potsdam,Saint Lawrence County,New York,NY,United States,us
"Providence, RI 02918",41.84261415,-71.43238865,"Providence, RI 02918, United States of America",02918,Providence,Providence County,Rhode Island,RI,United States,us
"Provo, UT 84602",40.26675191,-111.6616524,"Provo, UT 84602, United States of America",84602,Provo,Utah County,Utah,UT,United States,us
"Raleigh, NC 27695",35.78370282,-78.67442383,"Raleigh, NC 27695, United States of America",27695,Raleigh,Wake County,North Carolina,NC,United States,us
"Reno, NV 89557",39.54392635,-119.8158187,"Reno, NV 89557, United States of America",89557,Reno,Washoe County,Nevada,NV,United States,us
"Richmond, IN 47374",39.8286897,-84.8898521,"Richmond (Richmond), IN 47374, United States of America",47374,Richmond,Wayne County,Indiana,IN,United States,us
"Richmond, VA 23284",37.54698975,-77.45290545,"Richmond, VA 23284, United States of America",23284,Richmond,,Virginia,VA,United States,us
"River Forest, IL 60305",41.8978091,-87.8139483,"River Forest, IL 60305, United States of America",60305,River Forest,Cook County,Illinois,IL,United States,us
"Riverside, CA 92504",33.94811813,-117.421694,"Riverside, CA 92504, United States of America",92504,Riverside,Riverside County,California,CA,United States,us
"Rochester, NY 14618",43.157285,-77.615214,"Rochester, NY, United States of America",,Rochester,Monroe County,New York,NY,United States,us
"Rochester, NY 14623",43.157285,-77.615214,"Rochester, NY, United States of America",,Rochester,Monroe County,New York,NY,United States,us
"Rockville Centre, NY 11571",40.68566724,-73.62528446,"South Hempstead, NY 11571, United States of America",11571,South Hempstead,Nassau County,New York,NY,United States,us
"Rolla, MO 65409",37.95419972,-91.7745266,"Rolla, MO 65409, United States of America",65409,Rolla,Phelps County,Missouri,MO,United States,us
"Romeoville, IL 60446",41.6475306,-88.0895061,"Romeoville, IL 60446, United States of America",60446,Romeoville,Will County,Illinois,IL,United States,us
"Safat, Kuwait",29.369969,47.974977,"Safat, Kuwait City, Al Asimah, Kuwait",,Kuwait City,Al Asimah,Al Asimah,,Kuwait,kw
"Salt Lake City, UT 84105",40.73777598,-111.8596166,"Salt Lake City, UT 84105, United States of America",84105,Salt Lake City,Salt Lake County,Utah,UT,United States,us
"San Francisco, CA 94117",37.76715827,-122.450044,"San Francisco, CA 94117, United States of America",94117,San Francisco,,California,CA,United States,us
"San Jose, CA 95192",37.3351474,-121.881441,"San Jose, CA 95192, United States of America",95192,San Jose,Santa Clara County,California,CA,United States,us
"San Marcos, CA 92069",33.15367641,-117.1467781,"San Marcos, CA 92069, United States of America",92069,San Marcos,San Diego County,California,CA,United States,us
"San Marcos, TX 78666",29.8826436,-97.9405828,"San Marcos (San Marcos), TX 78666, United States of America",78666,San Marcos,Hays County,Texas,TX,United States,us
"Santa Barbara, CA 93106",34.4221319,-119.702667,"Santa Barbara, CA, United States of America",,Santa Barbara,Santa Barbara County,California,CA,United States,us
"Santa Clara, CA 95053",37.34903991,-121.9383678,"Santa Clara, CA 95053, United States of America",95053,Santa Clara,Santa Clara County,California,CA,United States,us
"Saratoga Springs, NY 12866",43.0821793,-73.7853915,"Saratoga Springs, NY 12866, United States of America",12866,Saratoga Springs,Saratoga County,New York,NY,United States,us
"Savannah, GA 31419",32.0790074,-81.0921335,"Savannah, GA, United States of America",,Savannah,Chatham County,Georgia,GA,United States,us
"Seattle, WA 98195",47.65420136,-122.3062315,"Seattle, WA 98195, United States of America",98195,Seattle,King County,Washington,WA,United States,us
Singapore,1.357107,103.8194992,Singapore,,,,,,Singapore,sg
"Sioux Falls, SD 57197",43.5240974,-96.7387335,"Sioux Falls, SD 57197, United States of America",57197,Sioux Falls,Minnehaha County,South Dakota,SD,United States,us
"Sparkill, NY 10976",41.028907,-73.933284,"Sparkill, NY 10976, United States of America",10976,Sparkill,Rockland County,New York,NY,United States,us
"Spokane, WA 99251",47.6571934,-117.42351,"Spokane, WA, United States of America",,Spokane,Spokane County,Washington,WA,United States,us
"St Louis, MO 63121",38.70641311,-90.29790912,"Normandy, MO 63121, United States of America",63121,Normandy,Saint Louis County,Missouri,MO,United States,us
"Statesboro, GA 30460",32.425348,-81.783877,"Statesboro, GA 30460, United States of America",30460,Statesboro,Bulloch County,Georgia,GA,United States,us
"Stevens Point, WI 54481",44.51735975,-89.5748625,"Stevens Point, WI 54481, United States of America",54481,Stevens Point,Portage County,Wisconsin,WI,United States,us
"Stillwater, OK 74078",36.1258414,-97.07191288,"Stillwater, OK 74078, United States of America",74078,Stillwater,Payne County,Oklahoma,OK,United States,us
"Stockton, CA 95211",37.9577016,-121.290779,"Stockton, CA, United States of America",,Stockton,San Joaquin County,California,CA,United States,us
"Tacoma, WA 98402",47.25105423,-122.4417112,"Tacoma, WA 98402, United States of America",98402,Tacoma,Pierce County,Washington,WA,United States,us
"Tampa, FL 33606",27.93626144,-82.46621621,"Tampa, FL 33606, United States of America",33606,Tampa,Hillsborough County,Florida,FL,United States,us
"Tampa, FL 33620",28.06233508,-82.4120208,"Tampa, FL 33620, United States of America",33620,Tampa,Hillsborough County,Florida,FL,United States,us
"The Woodlands, TX 77381",30.1776785,-95.50384863,"Cochran's Crossing (The Woodlands), TX 77381, United States of America",77381,The Woodlands,Montgomery County,Texas,TX,United States,us
"Thousand Oaks, CA 91360",34.20015698,-118.875904,"Thousand Oaks, CA 91360, United States of America",91360,Thousand Oaks,Ventura County,California,CA,United States,us
"Tiffin, OH 44883",41.114485,-83.1779537,"Tiffin, OH 44883, United States of America",44883,Tiffin,Seneca County,Ohio,OH,United States,us
"Tuscaloosa, AL 35487",33.21012698,-87.54553296,"Tuscaloosa, AL 35487, United States of America",35487,Tuscaloosa,Tuscaloosa County,Alabama,AL,United States,us
"Tyler, TX 75799",32.316307,-95.25206535,"Tyler, TX 75799, United States of America",75799,Tyler,Smith County,Texas,TX,United States,us
"University Center, MI 48710",43.54321607,-83.97848883,"Frankenlust Township, MI 48710, United States of America",48710,Frankenlust Township,Bay County,Michigan,MI,United States,us
"University Park, IL 60484",41.4400344,-87.683377,"University Park, IL, United States of America",,University Park,Will County,Illinois,IL,United States,us
"University Park, PA 16802",40.80072057,-77.85974732,"State College, PA 16802, United States of America",16802,State College,Centre County,Pennsylvania,PA,United States,us
"University, MS 38677",34.36455298,-89.53748112,"Lafayette County, MS 38677, United States of America",38677,,Lafayette County,Mississippi,MS,United States,us
"Urbana, IL 61801",40.11076833,-88.21402277,"Urbana, IL 61801, United States of America",61801,Urbana,Champaign County,Illinois,IL,United States,us
"Utica, NY 13502",43.1009031,-75.2326641,"Utica, NY, United States of America",,Utica,Oneida County,New York,NY,United States,us
"Virginia Beach, VA 23464",36.79786663,-76.17667497,"Virginia Beach, VA 23464, United States of America",23464,Virginia Beach,,Virginia,VA,United States,us
"Waco, TX 76706",31.51805725,-97.12249318,"Waco, TX 76706, United States of America",76706,Waco,McLennan County,Texas,TX,United States,us
"Walla Walla, WA 99362",46.0667277,-118.339345,"Walla Walla, WA 99362, United States of America",99362,Walla Walla,Walla Walla County,Washington,WA,United States,us
"Washington, DC 20052",38.8950368,-77.0365427,"Washington, DC, United States of America",,Washington,,District of Columbia,DC,United States,us
"Waterloo, ON Canada N2L 3G1",43.47043145,-80.54393337,"Waterloo, ON N2L 3G1, Canada",N2L 3G1,Waterloo,Region of Waterloo,Ontario,ON,Canada,ca
"Waukesha, WI 53188",43.02057758,-88.27066791,"Waukesha, WI 53188, United States of America",53188,Waukesha,Waukesha County,Wisconsin,WI,United States,us
"Weatherford, OK 73096",35.5261633,-98.7075744,"Weatherford, OK 73096, United States of America",73096,Weatherford,Custer County,Oklahoma,OK,United States,us
"Wenzhou, China",27.9963899,120.695345,"Wenzhou, Zhejiang, China",,Wenzhou,,Zhejiang,,China,cn
"West Chester, PA 19383",39.9597213,-75.6059638,"West Chester (West Chester), PA 19383, United States of America",19383,West Chester,Chester County,Pennsylvania,PA,United States,us
"West Point, NY 10996",41.39242858,-73.96975461,"Highlands, NY 10996, United States of America",10996,Town of Highlands,Orange County,New York,NY,United States,us
"Wheaton, IL 60187",41.8646959,-88.1101709,"Wheaton, IL 60187, United States of America",60187,Wheaton,DuPage County,Illinois,IL,United States,us
"Wilmington, OH 45177",39.4453393,-83.8285375,"Wilmington, OH 45177, United States of America",45177,Wilmington,Clinton County,Ohio,OH,United States,us
"Winston-Salem, NC 27109",36.14602529,-80.27000299,"Winston-Salem, NC 27109, United States of America",27109,Winston-Salem,Forsyth County,North Carolina,NC,United States,us
"Winter Park, FL 32789",28.5989165,-81.34953424,"Winter Park, FL 32789, United States of America",32789,Winter Park,Orange County,Florida,FL,United States,us
"York, PA 17403",39.93221115,-76.71020644,"Queens Gate, PA 17403, United States of America",17403,Queens Gate,York County,Pennsylvania,PA,United States,us
"Youngstown, OH 44555",41.10583873,-80.64634593,"Youngstown, OH 44555, United States of America",44555,Youngstown,Mahoning County,Ohio,OH,United States,us
"Ypsilanti, MI 48197",42.241051,-83.6117646,"Ypsilanti, MI, United States of America",,Ypsilanti,Washtenaw County,Michigan,MI,United States,us
"Ada, OH 45810",40.7694969,-83.8227149,"Ada, OH 45810, United States of America",45810,Ada,Hardin County,Ohio,OH,United States,us
"Adrian, MI 49221",41.8975152,-84.0373054,"Adrian (Adrian), MI 49221, United States of America",49221,Adrian,Lenawee County,Michigan,MI,United States,us
"Alfred, NY 14802",42.2542334,-77.7906062,"Alfred, NY 14802, United States of America",14802,Alfred,Allegany County,New York,NY,United States,us
"Alma, MI 48801",43.37892,-84.659727,"Alma, MI 48801, United States of America",48801,Alma,Gratiot County,Michigan,MI,United States,us
"Amherst, NY 14226",42.9783924,-78.7997616,"Amherst, NY, United States of America",,Amherst,Erie County,New York,NY,United States,us
"Atlanta, GA 30302",33.7489924,-84.3902644,"Atlanta, GA, United States of America",,Atlanta,Fulton County,Georgia,GA,United States,us
"Atlanta, GA 30314",33.75756902,-84.43072004,"Atlanta, GA 30314, United States of America",30314,Atlanta,Fulton County,Georgia,GA,United States,us
"Austin, TX 78712",30.28624992,-97.73535327,"Austin, TX 78712, United States of America",78712,Austin,Travis County,Texas,TX,United States,us
"Baltimore, MD 21250",39.2908816,-76.610759,"Baltimore, MD, United States of America",,Baltimore,,Maryland,MD,United States,us
"Bend, OR 97701",44.06900323,-121.2692692,"Bend, OR 97701, United States of America",97701,Bend,Deschutes County,Oregon,OR,United States,us
"Berkeley, CA 94720",37.87292246,-122.2557252,"Berkeley, CA 94720, United States of America",94720,Berkeley,Alameda County,California,CA,United States,us
"Bethlehem, PA 18015",40.6178915,-75.3786521,"Bethlehem, PA, United States of America",,Bethlehem,Northampton County,Pennsylvania,PA,United States,us
"Bethlehem, PA 18018",40.62549326,-75.392026,"Bethlehem, PA 18018, United States of America",18018,Bethlehem,Northampton County,Pennsylvania,PA,United States,us
"Birmingham, AL 35229",33.5206824,-86.8024326,"Birmingham, AL, United States of America",,Birmingham,Jefferson County,Alabama,AL,United States,us
"Bloomsburg, PA 17815",41.0044958,-76.4537302,"Bloomsburg (Bloomsburg), PA 17815, United States of America",17815,Bloomsburg,Columbia County,Pennsylvania,PA,United States,us
"Boone, NC 28608",36.21027438,-81.68571768,"Boone, NC 28608, United States of America",28608,Boone,Watauga County,North Carolina,NC,United States,us
"Boston, MA 02125",42.31588398,-71.05931295,"Boston, MA 02125, United States of America",02125,Boston,Suffolk County,Massachusetts,MA,United States,us
"Brooklyn, NY 11205",40.6931168,-73.96433037,"New York, NY 11205, United States of America",11205,New York,Kings County,New York,NY,United States,us
"Brunswick, ME 04011",43.9166529,-69.9659438,"Brunswick (Brunswick), ME 04011, United States of America",04011,Brunswick,Cumberland County,Maine,ME,United States,us
"Burlington, VT 05402",44.4761601,-73.212906,"Burlington, VT, United States of America",,Burlington,Chittenden County,Vermont,VT,United States,us
"Cape Breton Island, Nova Scotia, Canada",45.1960403,-63.1653789,"NS, Canada",,,,Nova Scotia,NS,Canada,ca
"Cedar Rapids, IA 52402",42.0173443,-91.65279943,"Cedar Rapids, IA 52402, United States of America",52402,Cedar Rapids,Linn County,Iowa,IA,United States,us
"Center Valley, PA 18034",40.53590046,-75.41917766,"Upper Saucon, PA 18034, United States of America",18034,Upper Saucon,Lehigh County,Pennsylvania,PA,United States,us
"Chadron, NE 69337",42.8309807,-103.0003729,"Chadron, NE, United States of America",,Chadron,Dawes County,Nebraska,NE,United States,us
"Charleston, SC 29424",32.78554575,-79.9383592,"Charleston, SC 29424, United States of America",29424,Charleston,Charleston County,South Carolina,SC,United States,us
"Chicago, IL 60607",41.8771716,-87.65129133,"Chicago, IL 60607, United States of America",60607,Chicago,Cook County,Illinois,IL,United States,us
"Chicago, IL 60616",41.84697379,-87.63202286,"Chicago, IL 60616, United States of America",60616,Chicago,Cook County,Illinois,IL,United States,us
"Chico, CA 95929",39.72979132,-121.8470702,"Chico, CA 95929, United States of America",95929,Chico,Butte County,California,CA,United States,us
"Cincinnati, OH 45221",39.1322564,-84.51506105,"Cincinnati, OH 45221, United States of America",45221,Cincinnati,Hamilton County,Ohio,OH,United States,us
"Cleveland, OH 44115",41.49741282,-81.67802005,"Cleveland, OH 44115, United States of America",44115,Cleveland,Cuyahoga County,Ohio,OH,United States,us
"Columbus, GA 31907",32.48049173,-84.90662332,"Columbus, GA 31907, United States of America",31907,Columbus,Muscogee County,Georgia,GA,United States,us
"Cortland, NY 13045",42.6011813,-76.1804843,"Cortland, NY 13045, United States of America",13045,Cortland,Cortland County,New York,NY,United States,us
"Crawfordsville, IN, 47933",40.0401991,-86.8990249,"Crawfordsville, IN 47933, United States of America",47933,Crawfordsville,Montgomery County,Indiana,IN,United States,us
"Davis, CA 95616",38.54834276,-121.7435793,"Davis, CA 95616, United States of America",95616,Davis,Yolo County,California,CA,United States,us
"Delaware, OH 43015",40.2986724,-83.067965,"Delaware (Delaware), OH 43015, United States of America",43015,Delaware,Delaware County,Ohio,OH,United States,us
"Denton, TX 76204",33.22686606,-97.12776784,"Denton, TX 76204, United States of America",76204,Denton,Denton County,Texas,TX,United States,us
"Detroit, MI 48221",42.43113481,-83.14248888,"Detroit, MI 48221, United States of America",48221,Detroit,Wayne County,Michigan,MI,United States,us
"Dubai, United Arab Emirate",25.22773555,55.174999621360726,"United Arab Emirates, Dubai, United Arab Emirates",,,,Dubai,,United Arab Emirates,ae
"Dubuque, IA 52001",42.51071124,-90.67643839,"Dubuque, IA 52001, United States of America",52001,Dubuque,Dubuque County,Iowa,IA,United States,us
"Durant, OK 74701",34.0058748,-96.38848652,"Durant, OK 74701, United States of America",74701,Durant,Bryan County,Oklahoma,OK,United States,us
"Durham, NC 27707",35.9590678,-78.93869717,"Durham, NC 27707, United States of America",27707,Durham,Durham County,North Carolina,NC,United States,us
"Durham, NH 03824",43.134564,-70.927048,"Durham, NH 03824, United States of America",03824,Durham,Strafford County,New Hampshire,NH,United States,us
"Eau Claire, WI 54702",44.7774281,-91.4329981,"Eau Claire, WI 54702, United States of America",54702,Eau Claire,Eau Claire County,Wisconsin,WI,United States,us
"Edwardsville, IL 62026",38.79301533,-89.99559875,"Edwardsville, IL 62026, United States of America",62026,Edwardsville,Madison County,Illinois,IL,United States,us
"El Paso, TX 79968",31.76821888,-106.5049179,"El Paso, TX 79968, United States of America",79968,El Paso,El Paso County,Texas,TX,United States,us
"Elgin, IL 60123",42.04210069,-88.33027052,"Elgin, IL 60123, United States of America",60123,Elgin,Kane County,Illinois,IL,United States,us
"Emmitsburg, MD 21727",39.7045417,-77.3269307,"Emmitsburg (Emmitsburg), MD, United States of America",,Emmitsburg,Frederick County,Maryland,MD,United States,us
"Eugene, OR 97403",44.03558295,-123.0590942,"Eugene, OR 97403, United States of America",97403,Eugene,Lane County,Oregon,OR,United States,us
"Evansville, IN 47722",37.970022,-87.531405,"Evansville, IN 47722, United States of America",47722,Evansville,Vanderburgh County,Indiana,IN,United States,us
"Fargo, ND 58108",46.877229,-96.789821,"Fargo, ND, United States of America",,Fargo,Cass County,North Dakota,ND,United States,us
"Flint, MI 48504",43.04328972,-83.73220332,"Flint, MI 48504, United States of America",48504,Flint,Genesee County,Michigan,MI,United States,us
"Florence, SC 29502",34.20232425,-79.77389666,"Florence, SC 29502, United States of America",29502,Florence,Florence County,South Carolina,SC,United States,us
"Fort Collins, CO 80523",40.5723738,-105.0807378,"Fort Collins, CO 80523, United States of America",80523,Fort Collins,Larimer County,Colorado,CO,United States,us
"Fort Worth, TX 76102",32.75420369,-97.33094423,"Fort Worth, TX 76102, United States of America",76102,Fort Worth,Tarrant County,Texas,TX,United States,us
"Gary, IN 46408",41.6020962,-87.3370646,"Gary, IN, United States of America",,Gary,Lake County,Indiana,IN,United States,us
"Grand Rapids, MI 49546",42.9632425,-85.6678639,"Grand Rapids, MI, United States of America",,Grand Rapids,Kent County,Michigan,MI,United States,us
"Greensboro, NC 27412",36.0706476,-79.80775046,"Greensboro, NC 27412, United States of America",27412,Greensboro,Guilford County,North Carolina,NC,United States,us
"Hampton, VA 23668",37.0210096,-76.3386255,"Hampton, VA 23668, United States of America",23668,Hampton,,Virginia,VA,United States,us
"Hanover, NH 03755",43.70518638,-72.27977832,"Hanover, NH 03755, United States of America",03755,Hanover,Grafton County,New Hampshire,NH,United States,us
"Hartsville, SC 29550",34.3740431,-80.0734005,"Hartsville (Hartsville), SC 29550, United States of America",29550,Hartsville,Darlington County,South Carolina,SC,United States,us
"Hastings, NE 68902",40.60344493,-98.40705607,"Hastings, NE 68902, United States of America",68902,Hastings,Adams County,Nebraska,NE,United States,us
"Helena, MT 59625",46.602018,-112.036768,"Helena, MT 59625, United States of America",59625,Helena,Lewis and Clark County,Montana,MT,United States,us
"Hempstead, NY 11549",40.6736812,-73.6190736,"Hempstead, NY, United States of America",,Hempstead,Nassau County,New York,NY,United States,us
"Henderson, NV 89002",35.99184772,-114.9375219,"Henderson, NV 89002, United States of America",89002,Henderson,Clark County,Nevada,NV,United States,us
"Houston, TX 77058",29.56179379,-95.10596939,"Houston, TX 77058, United States of America",77058,Houston,Harris County,Texas,TX,United States,us
"Indiana, PA 15705",40.61629733,-79.15692326,"Indiana, PA 15705, United States of America",15705,Indiana,Indiana County,Pennsylvania,PA,United States,us
"Indianapolis, IN 46227",39.67787532,-86.13029708,"Indianapolis, IN 46227, United States of America",46227,Indianapolis,Marion County,Indiana,IN,United States,us
"Iowa City, IA 52242",41.66225678,-91.54317374,"Iowa City, IA 52242, United States of America",52242,Iowa City,Johnson County,Iowa,IA,United States,us
"Irvine, CA 92697",33.64568783,-117.8486728,"Irvine, CA 92697, United States of America",92697,Irvine,Orange County,California,CA,United States,us
"Jackson, MS 39210",32.3212498,-90.18019375,"Jackson, MS 39210, United States of America",39210,Jackson,Hinds County,Mississippi,MS,United States,us
"Jakarta, Indonesia",-6.175247,106.8270488,"Special capital Region of Jakarta, Java, Indonesia",,Special capital Region of Jakarta,,Java,,Indonesia,id
"Jersey City, NJ 07305",40.69890932,-74.09173875,"Jersey City, NJ 07305, United States of America",07305,Jersey City,Hudson County,New Jersey,NJ,United States,us
"Juneau, AK 99801",58.35146151,-134.5365067,"Juneau, AK 99801, United States of America",99801,Juneau,,Alaska,AK,United States,us
"Kaiserslautern, Germany",49.4432174,7.7689951,"Kaiserslautern, RP, Germany",,Kaiserslautern,,Rhineland-Palatinate,RP,Germany,de
"Kensington, PA 15068",40.57209437,-79.73457037,"New Kensington, PA 15068, United States of America",15068,New Kensington,Westmoreland County,Pennsylvania,PA,United States,us
"Kingston, RI 02881",41.4801166,-71.5227103,"Kingston, RI 02881, United States of America",02881,Kingston,South County,Rhode Island,RI,United States,us
"Kingsville, TX 78363",27.5158689,-97.856109,"Kingsville, TX 78363, United States of America",78363,Kingsville,Kleberg County,Texas,TX,United States,us
"La Jolla, CA 92093",32.87923731,-117.2394473,"San Diego, CA 92093, United States of America",92093,San Diego,San Diego County,California,CA,United States,us
"La Plume, PA 18440",41.5565738,-75.7551655,"La Plume, PA 18440, United States of America",18440,La Plume,Lackawanna County,Pennsylvania,PA,United States,us
"Lafayette, LA 70504",30.212035,-92.0202836,"Lafayette, LA 70504, United States of America",70504,Lafayette,Lafayette Parish,Louisiana,LA,United States,us
"Lakeland, FL 33801",28.0394654,-81.9498042,"Lakeland, FL, United States of America",,Lakeland,Polk County,Florida,FL,United States,us
"Laramie, WY 82071",41.31090491,-105.5834837,"Laramie, WY 82071, United States of America",82071,Laramie,Albany County,Wyoming,WY,United States,us
"Lawrence, KS 66045",38.95668789,-95.25207965,"Lawrence, KS 66045, United States of America",66045,Lawrence,Douglas County,Kansas,KS,United States,us
"Lincoln, NE 68588",40.81920395,-96.70266711,"Lincoln, NE 68588, United States of America",68588,Lincoln,Lancaster County,Nebraska,NE,United States,us
"Logan, UT 84322",41.74603593,-111.8108358,"Logan, UT 84322, United States of America",84322,Logan,Cache County,Utah,UT,United States,us
"Long Beach, CA 90840",33.78446116,-118.1097966,"Long Beach, CA 90840, United States of America",90840,Long Beach,Los Angeles County,California,CA,United States,us
"Long Island City, NY 11101",40.7415095,-73.9569751,"Long Island City, Borden Avenue, New York, NY 11109, United States of America",11109,New York,,New York,NY,United States,us
"Lubbock, TX 79409",33.58399384,-101.8794583,"Lubbock, TX 79409, United States of America",79409,Lubbock,Lubbock County,Texas,TX,United States,us
"Manhattan, KS 66506",39.19230409,-96.58080482,"Manhattan, KS 66506, United States of America",66506,Manhattan,Riley County,Kansas,KS,United States,us
"Maryville, MO 64468",40.3460468,-94.8723858,"Maryville, MO 64468, United States of America",64468,Maryville,Nodaway County,Missouri,MO,United States,us
"Miami Shores, FL 33161",25.89356057,-80.18238099,"North Miami, FL 33161, United States of America",33161,North Miami,Miami-Dade County,Florida,FL,United States,us
"Milledgeville, GA 31061",33.08752676,-83.24375574,"Milledgeville, GA 31061, United States of America",31061,Milledgeville,Baldwin County,Georgia,GA,United States,us
"Milwaukee, WI 53202",43.04924247,-87.89868121,"Milwaukee, WI 53202, United States of America",53202,Milwaukee,Milwaukee County,Wisconsin,WI,United States,us
"Minot, ND 58707",48.2481273,-101.3005556,"Minot, ND 58707, United States of America",58707,Minot,Ward County,North Dakota,ND,United States,us
"Montgomery, AL 36124",32.376865,-86.1720349,"Montgomery, AL 36124, United States of America",36124,Montgomery,Montgomery County,Alabama,AL,United States,us
"Moscow, Russia",55.7505412,37.6174782,"Moscow, Russia",,Moscow,,Moscow,,Russia,ru
"Muncie, IN 47306",40.19780353,-85.41095515,"Muncie, IN 47306, United States of America",47306,Muncie,Delaware County,Indiana,IN,United States,us
"Nacogdoches, TX 75962",31.6037322,-94.6559702,"Nacogdoches, TX, United States of America",,Nacogdoches,Nacogdoches County,Texas,TX,United States,us
"Naperville, IL 60540",41.7671907,-88.16220554,"Naperville, IL 60540, United States of America",60540,Naperville,DuPage County,Illinois,IL,United States,us
"New Haven, CT 06520",41.30693036,-72.93242144,"New Haven, CT 06520, United States of America",06520,New Haven,South Central Connecticut Planning Region,Connecticut,CT,United States,us
"New Kensington, PA 15068",40.5697893,-79.7647705,"New Kensington (New Kensington), PA 15068, United States of America",15068,New Kensington,Westmoreland County,Pennsylvania,PA,United States,us
"New York, NY 10001",40.74847677,-73.99413825,"New York, NY 10001, United States of America",10001,New York,New York County,New York,NY,United States,us
"New York, NY 10004",40.70113353,-74.01357106,"New York, NY 10004, United States of America",10004,New York,New York County,New York,NY,United States,us
"New York, NY 10012",40.72518998,-73.99810112,"New York, NY 10012, United States of America",10012,New York,New York County,New York,NY,United States,us
"New York, NY 10016",40.7454969,-73.9797503,"New York, NY 10016, United States of America",10016,New York,New York County,New York,NY,United States,us
"New York, NY 10027",40.81045597,-73.95052516,"New York, NY 10027, United States of America",10027,New York,New York County,New York,NY,United States,us
"New York, NY 10031",40.82532137,-73.94835704,"New York, NY 10031, United States of America",10031,New York,New York County,New York,NY,United States,us
"New York, NY 10038",40.70915188,-74.0043838,"New York, NY 10038, United States of America",10038,New York,New York County,New York,NY,United States,us
"Newport News, VA 23606",37.07646597,-76.49900448,"Newport News, VA 23606, United States of America",23606,,Newport News,Virginia,VA,United States,us
"Norfolk, VA 23529",36.88517192,-76.30639647,"Norfolk, VA 23529, United States of America",23529,Norfolk,,Virginia,VA,United States,us
"Norman, OK 73019",35.19815399,-97.44383483,"Norman, OK 73019, United States of America",73019,Norman,Cleveland County,Oklahoma,OK,United States,us
"North Adams, MA 01247",42.6990349,-73.1118997,"North Adams, MA 01247, United States of America",01247,North Adams,Berkshire County,Massachusetts,MA,United States,us
"North Andover, MA 01845",42.6839894,-71.1127065,"North Andover, MA 01845, United States of America",01845,North Andover,Essex County,Massachusetts,MA,United States,us
"Oakland, CA 94619",37.79067205,-122.1977242,"Oakland, CA 94619, United States of America",94619,Oakland,Alameda County,California,CA,United States,us
"Oberlin, OH 44074",41.2939386,-82.2173786,"Oberlin, OH 44074, United States of America",44074,Oberlin,Lorain County,Ohio,OH,United States,us
"Orono, ME 04469",44.90112082,-68.66783536,"Orono, ME 04469, United States of America",04469,Orono,Penobscot County,Maine,ME,United States,us
"Oroville, CA 95965",39.5137752,-121.556359,"Oroville, CA 95965, United States of America",95965,Oroville,Butte County,California,CA,United States,us
"Oxford, OH 45056",39.5103048,-84.7420519,"Oxford, OH 45056, United States of America",45056,Oxford,Butler County,Ohio,OH,United States,us
"Palm Desert, CA 92260",33.72790734,-116.3882892,"Palm Desert, CA 92260, United States of America",92260,Palm Desert,Riverside County,California,CA,United States,us
"Philadelphia, PA 19104",39.9577596,-75.19807602,"Philadelphia, PA 19104, United States of America",19104,Philadelphia,Philadelphia County,Pennsylvania,PA,United States,us
"Philadelphia, PA 19130",39.96821465,-75.17150861,"Philadelphia, PA 19130, United States of America",19130,Philadelphia,Philadelphia County,Pennsylvania,PA,United States,us
"Philadelphia, PA 19144",40.0357295,-75.17165992,"Philadelphia, PA 19144, United States of America",19144,Philadelphia,Philadelphia County,Pennsylvania,PA,United States,us
"Pittsburg, KS 66762",37.4108841,-94.70496,"Pittsburg (Pittsburg), KS 66762, United States of America",66762,Pittsburg,Crawford County,Kansas,KS,United States,us
"Pittsburgh, PA 15260",40.44398702,-79.95510335,"Pittsburgh, PA 15260, United States of America",15260,Pittsburgh,Allegheny County,Pennsylvania,PA,United States,us
"Pocatello, ID 83209",42.86393557,-112.4317731,"Pocatello, ID 83209, United States of America",83209,Pocatello,Bannock County,Idaho,ID,United States,us
"Portsmouth, OH 45662",38.7316375,-82.9965441,"Portsmouth, OH, United States of America",,Portsmouth,Scioto County,Ohio,OH,United States,us
"Prescott, AZ 86301",34.57459557,-112.4632446,"Prescott, AZ 86301, United States of America",86301,Prescott,Yavapai County,Arizona,AZ,United States,us
"Riverside, CA 92503",33.9824949,-117.374238,"Riverside, CA, United States of America",,Riverside,Riverside County,California,CA,United States,us
"Roanoke, VA 24014",37.23796025,-79.93353115,"Roanoke, VA 24014, United States of America",24014,Roanoke,,Virginia,VA,United States,us
"Rockford, IL 61108",42.25683029,-89.00969159,"Rockford, IL 61108, United States of America",61108,Rockford,Winnebago County,Illinois,IL,United States,us
"Russellville, AR 72801",35.27672528,-93.14017317,"Russellville, AR 72801, United States of America",72801,Russellville,Pope County,Arkansas,AR,United States,us
"Salem, MA 01970",42.5195292,-70.8967226,"Salem, MA 01970, United States of America",01970,Salem,Essex County,Massachusetts,MA,United States,us
"Salt Lake City, UT 84112",40.76489909,-111.8420979,"Salt Lake City, UT 84112, United States of America",84112,Salt Lake City,Salt Lake County,Utah,UT,United States,us
"San Diego, CA 92182",32.77347809,-117.0726116,"San Diego, CA 92182, United States of America",92182,San Diego,San Diego County,California,CA,United States,us
"San Luis Obispo, CA 93407",35.2827525,-120.659615,"San Luis Obispo, CA, United States of America",,San Luis Obispo,San Luis Obispo County,California,CA,United States,us
"Santa Rosa, CA 95401",38.4404925,-122.7141049,"Santa Rosa, CA, United States of America",,Santa Rosa,Sonoma County,California,CA,United States,us
"Sarasota, FL 34243",27.3365805,-82.5308545,"Sarasota, FL, United States of America",,Sarasota,Sarasota County,Florida,FL,United States,us
"Sioux Center, IA 51250",43.0796879,-96.1756497,"Sioux Center (Sioux Center), IA 51250, United States of America",51250,Sioux Center,Sioux County,Iowa,IA,United States,us
"Southfield, MI 48075",42.46283891,-83.2254127,"Southfield, MI 48075, United States of America",48075,Southfield,Oakland County,Michigan,MI,United States,us
"Springfield, IL 62703",39.76808718,-89.63219246,"Springfield, IL 62703, United States of America",62703,Springfield,Sangamon County,Illinois,IL,United States,us
"St Thomas, VI 00802",18.34357797,-64.92035202,"Saint Thomas - Saint John District, VI 00802, United States of America",00802,,Saint Thomas - Saint John District,United States Virgin Islands,,United States,us
"Stanford, CA 94305",37.42620827,-122.164265,"Stanford, CA 94305, United States of America",94305,Stanford,Santa Clara County,California,CA,United States,us
"Staten Island, NY 10314",40.60394813,-74.14730431,"New York, NY 10314, United States of America",10314,New York,,New York,NY,United States,us
"Storrs, CT 06269",41.8084314,-72.2495231,"Storrs (Mansfield), CT 06269, United States of America",06269,Mansfield,Capitol Planning Region,Connecticut,CT,United States,us
"Swarthmore, PA 19081",39.9020565,-75.3499124,"Swarthmore (Swarthmore), PA 19081, United States of America",19081,Swarthmore,Delaware County,Pennsylvania,PA,United States,us
"Syracuse, NY 13244",43.0481221,-76.1474244,"Syracuse, NY, United States of America",,Syracuse,Onondaga County,New York,NY,United States,us
"Tacoma, WA 98447",47.2455013,-122.438329,"Tacoma, WA, United States of America",,Tacoma,Pierce County,Washington,WA,United States,us
"Terre Haute, IN 47803",39.46606161,-87.34782001,"Terre Haute, IN 47803, United States of America",47803,Terre Haute,Vigo County,Indiana,IN,United States,us
"Texas City, TX 77591",29.40000542,-95.01069047,"Texas City, TX 77591, United States of America",77591,Texas City,Galveston County,Texas,TX,United States,us
"Troy, NY 12180",42.7284117,-73.6917878,"Troy, NY, United States of America",,Troy,Rensselaer County,New York,NY,United States,us
"Washington, DC 20036",38.8950368,-77.0365427,"Washington, DC, United States of America",,Washington,,District of Columbia,DC,United States,us
"Waterloo, ON Canada",43.4652699,-80.5222961,"Waterloo, ON, Canada",,Waterloo,Region of Waterloo,Ontario,ON,Canada,ca
"Waterloo, Ontario, Canada",43.4652699,-80.5222961,"Waterloo, ON, Canada",,Waterloo,Region of Waterloo,Ontario,ON,Canada,ca
"West Haven, CT 06516",41.2706527,-72.9470471,"West Haven (West Haven), CT 06516, United States of America",06516,West Haven,South Central Connecticut Planning Region,Connecticut,CT,United States,us
"West Lafayette, IN 47907",40.42524364,-86.91757233,"West Lafayette, IN 47907, United States of America",47907,West Lafayette,Tippecanoe County,Indiana,IN,United States,us
"West Long Branch, NJ 07764",40.2903891,-74.0176381,"West Long Branch, NJ 07764, United States of America",07764,West Long Branch,Monmouth County,New Jersey,NJ,United States,us
"Wichita, KS 67260",37.7193429,-97.2898878,"Wichita, KS 67260, United States of America",67260,Wichita,Sedgwick County,Kansas,KS,United States,us
"Abington, PA 19001",40.12577168,-75.1265243,"Abington Township, PA 19001, United States of America",19001,Abington Township,Montgomery County,Pennsylvania,PA,United States,us
"Abu Dhabi, United Arab Emirates",24.4538352,54.3774014,"Abu Dhabi, Abu Dhabi Emirate, United Arab Emirates",,Abu Dhabi,,Abu Dhabi Emirate,,United Arab Emirates,ae
"Abu Dis, Palestine",31.7642353,35.2584499,"Abu Dis (Abu Dis), West Bank, Palestinian Territory",,Abu Dis,Area B,West Bank,,Palestinian Territory,ps
"Aiken, SC 29801",33.56212007,-81.71607424,"Aiken, SC 29801, United States of America",29801,Aiken,,South Carolina,SC,United States,us
"Arlington, TX 76019",32.73262354,-97.11280586,"Arlington, TX 76019, United States of America",76019,Arlington,Tarrant County,Texas,TX,United States,us
"Arlington, VA 22207",38.8903961,-77.0841585,"Arlington, VA, United States of America",,Arlington,Arlington County,Virginia,VA,United States,us
"Astana, Kazakhstan",51.1282205,71.4306682,"Astana, Kazakhstan",,Astana,,,,Kazakhstan,kz
"Atlanta, GA, 30314",33.75756902,-84.43072004,"Atlanta, GA 30314, United States of America",30314,Atlanta,Fulton County,Georgia,GA,United States,us
"Augusta, GA 30912",33.47086154,-81.98866604,"Augusta, GA 30912, United States of America",30912,Augusta,Richmond County,Georgia,GA,United States,us
"Austin, TX 78704",30.24452171,-97.76192719,"Austin, TX 78704, United States of America",78704,Austin,Travis County,Texas,TX,United States,us
"Birmingham, AL 35254",33.523932,-86.850219,"Birmingham, AL 35254, United States of America",35254,Birmingham,Jefferson County,Alabama,AL,United States,us
"Blue Ash, OH 45236",39.20522364,-84.39849743,"Deer Park, OH 45236, United States of America",45236,Deer Park,Hamilton County,Ohio,OH,United States,us
"Boulder, CO 80309",40.00895666,-105.2678681,"Boulder, CO 80309, United States of America",80309,Boulder,Boulder County,Colorado,CO,United States,us
"Bowling Green, OH 43403",41.37822548,-83.63755978,"Bowling Green, OH 43403, United States of America",43403,Bowling Green,Wood County,Ohio,OH,United States,us
"Bradford, PA 16701",41.9559613,-78.6475883,"Bradford, PA 16701, United States of America",16701,Bradford,McKean County,Pennsylvania,PA,United States,us
"Bronx, NY 10468",40.86536851,-73.9003485,"New York, NY 10468, United States of America",10468,New York,,New York,NY,United States,us
"Brooklyn, NY 11210",40.62743242,-73.94568467,"New York, NY 11210, United States of America",11210,New York,Kings County,New York,NY,United States,us
"Carson, CA 90747",33.86401433,-118.259162,"Carson, CA 90747, United States of America",90747,Carson,Los Angeles County,California,CA,United States,us
"Chapel Hill, NC 27599",35.90592435,-79.05076925,"Chapel Hill, NC 27599, United States of America",27599,Chapel Hill,Orange County,North Carolina,NC,United States,us
"Chattanooga, TN 37403",35.04422059,-85.29819347,"Chattanooga, TN 37403, United States of America",37403,Chattanooga,Hamilton County,Tennessee,TN,United States,us
"Chicago, IL 60614",41.92243812,-87.6521317,"Chicago, IL 60614, United States of America",60614,Chicago,Cook County,Illinois,IL,United States,us
"Cincinnati, OH 45207",39.13975676,-84.47119661,"Cincinnati, OH 45207, United States of America",45207,Cincinnati,Hamilton County,Ohio,OH,United States,us
"Cresson, PA 16630",40.4597938,-78.5916837,"Cresson (Cresson), PA 16630, United States of America",16630,Cresson,Cambria County,Pennsylvania,PA,United States,us
"Denton, TX 76203",33.21036623,-97.14793573,"Denton, TX 76203, United States of America",76203,Denton,Denton County,Texas,TX,United States,us
"Dubai, United Arab Emirates",25.2653471,55.2924914,"Dubai, United Arab Emirates",,Dubai,,Dubai,,United Arab Emirates,ae
"Erie, PA 16546",42.1052397,-80.05218644,"Erie, PA 16546, United States of America",16546,Erie,Erie County,Pennsylvania,PA,United States,us
"Eureka, IL 61530",40.7213015,-89.2726708,"Eureka (Eureka), IL 61530, United States of America",61530,Eureka,Woodford County,Illinois,IL,United States,us
"Evanston, IL 60208",42.05489739,-87.67659464,"Evanston, IL 60208, United States of America",60208,Evanston,Cook County,Illinois,IL,United States,us
"Flagstaff, AZ 86011",35.18652339,-111.6545599,"Flagstaff, AZ 86011, United States of America",86011,Flagstaff,Coconino County,Arizona,AZ,United States,us
"Forest Grove, OR 97116",45.5190404,-123.1110551,"Forest Grove, OR 97116, United States of America",97116,Forest Grove,Washington County,Oregon,OR,United States,us
"Fort Wayne, IN 46805",41.09882965,-85.11862822,"Fort Wayne, IN 46805, United States of America",46805,Fort Wayne,Allen County,Indiana,IN,United States,us
"Framingham, MA 01701",42.30830317,-71.41739529,"Framingham, MA 01701, United States of America",01701,Framingham,Middlesex County,Massachusetts,MA,United States,us
"Franklin, IN 46131",39.4806056,-86.0549863,"Franklin (Franklin), IN 46131, United States of America",46131,Franklin,Johnson County,Indiana,IN,United States,us
"Galloway, NJ 08205",39.4944966,-74.4995771,"Galloway Township, NJ 08205, United States of America",08205,Galloway Township,Atlantic County,New Jersey,NJ,United States,us
"Glenside, PA 19038",40.1001891,-75.1539056,"Glenside (Cheltenham Township), PA 19038, United States of America",19038,Cheltenham Township,Montgomery County,Pennsylvania,PA,United States,us
"Grand Junction, CO 81501",39.07717699,-108.5473249,"Grand Junction, CO 81501, United States of America",81501,Grand Junction,Mesa County,Colorado,CO,United States,us
"Granville, OH 43023",40.0681192,-82.5196037,"Granville, OH 43023, United States of America",43023,Granville,Licking County,Ohio,OH,United States,us
"Greenville, NC 27858",35.58044566,-77.3419621,"Greenville, NC 27858, United States of America",27858,Greenville,Pitt County,North Carolina,NC,United States,us
"Grove City, PA 16127",41.1579008,-80.0886631,"Grove City, PA, United States of America",,Grove City,Mercer County,Pennsylvania,PA,United States,us
"Hartford, CT 06106",41.74853998,-72.69638911,"Hartford, CT 06106, United States of America",06106,Hartford,Capitol Planning Region,Connecticut,CT,United States,us
"Hickory, NC 28601",35.76375808,-81.33733694,"Hickory, NC 28601, United States of America",28601,Hickory,Catawba County,North Carolina,NC,United States,us
"Houston, TX 77002",29.75649817,-95.36572941,"Houston, TX 77002, United States of America",77002,Houston,Harris County,Texas,TX,United States,us
"Huntsville, AL 35899",34.7249108,-86.6404909,"Huntsville, AL 35899, United States of America",35899,Huntsville,Madison County,Alabama,AL,United States,us
"Indianapolis, IN 46202",39.78495012,-86.1566034,"Indianapolis, IN 46202, United States of America",46202,Indianapolis,Marion County,Indiana,IN,United States,us
"Kearney, NE 68849",40.68650535,-99.09848205,"Kearney, NE 68849, United States of America",68849,Kearney,Buffalo County,Nebraska,NE,United States,us
"La Mirada, CA 90639",33.90686,-118.0152171,"La Mirada, CA 90639, United States of America",90639,La Mirada,Los Angeles County,California,CA,United States,us
"Lewiston, ME 04240",44.1004515,-70.2150294,"Lewiston, ME 04240, United States of America",04240,Lewiston,Androscoggin County,Maine,ME,United States,us
"Lexington, KY 40506",38.03343787,-84.50351564,"Lexington, KY 40506, United States of America",40506,Lexington,Fayette County,Kentucky,KY,United States,us
"Loch Sheldrake, NY 12759",41.77853034,-74.65341367,"Loch Sheldrake, NY 12759, United States of America",12759,Loch Sheldrake,Sullivan County,New York,NY,United States,us
"Los Angeles, CA 90032",34.07058269,-118.1766076,"Los Angeles, CA 90032, United States of America",90032,Los Angeles,Los Angeles County,California,CA,United States,us
"Macau, China",22.1899448,113.5380454,"519000 Macau, China",519000,Macau,Municipality of Macau,Macau,,China,cn
"Macon, GA 31210",32.89392761,-83.72256749,"Macon, GA 31210, United States of America",31210,Macon,Bibb County,Georgia,GA,United States,us
"Manchester, NH 03101",42.9897561,-71.46300316,"Manchester, NH 03101, United States of America",03101,Manchester,Hillsborough County,New Hampshire,NH,United States,us
"Mankato, MN",44.1634663,-93.9993505,"Mankato (Mankato), MN 56001, United States of America",56001,Mankato,Blue Earth County,Minnesota,MN,United States,us
"Marion, AL 36756",32.6323536,-87.3191655,"Marion, AL 36756, United States of America",36756,Marion,Perry County,Alabama,AL,United States,us
"Marshall, MN 56258",44.4469635,-95.7886581,"Marshall, MN 56258, United States of America",56258,Marshall,Lyon County,Minnesota,MN,United States,us
"Martinez, CA 94553",38.0138934,-122.1338674,"Martinez, CA, United States of America",,Martinez,Contra Costa County,California,CA,United States,us
"Media, PA 19063",39.9167783,-75.387693,"Media (Media), PA, United States of America",,Media,Delaware County,Pennsylvania,PA,United States,us
"Milwaukee, WI 53222",43.08207094,-88.02604625,"Milwaukee, WI 53222, United States of America",53222,Milwaukee,Milwaukee County,Wisconsin,WI,United States,us
"Missoula, MT 59812",46.86156606,-113.9827832,"Missoula, MT 59812, United States of America",59812,Missoula,Missoula County,Montana,MT,United States,us
"Mobile, AL 36608",30.69320149,-88.18975926,"Mobile, AL 36608, United States of America",36608,Mobile,Mobile County,Alabama,AL,United States,us
"Montevallo, AL 35115",33.1006746,-86.8641558,"Montevallo, AL 35115, United States of America",35115,Montevallo,Shelby County,Alabama,AL,United States,us
"Moraga, CA 94575",37.8413309,-122.109738,"Moraga, CA 94575, United States of America",94575,Moraga,Contra Costa County,California,CA,United States,us
"Murfreesboro, TN 37132",35.84792473,-86.36301965,"Murfreesboro, TN 37132, United States of America",37132,Murfreesboro,Rutherford County,Tennessee,TN,United States,us
"Murray, KY 42071",36.6105066,-88.3151539,"Murray (Murray), KY, United States of America",,Murray,Calloway County,Kentucky,KY,United States,us
"Nashville, TN 37235",36.1622767,-86.7742984,"Nashville, TN, United States of America",,Nashville,Davidson County,Tennessee,TN,United States,us
"Newark, NJ 07102",40.73532135,-74.17272851,"Newark, NJ 07102, United States of America",07102,Newark,Essex County,New Jersey,NJ,United States,us
"Oceanside, CA 92056",33.19846566,-117.283562,"Oceanside, CA 92056, United States of America",92056,Oceanside,San Diego County,California,CA,United States,us
"Old Westbury, NY 11568",40.7887113,-73.5995717,"Old Westbury, NY 11568, United States of America",11568,Old Westbury,Nassau County,New York,NY,United States,us
"Oshkosh, WI 54901",44.03125274,-88.53946638,"Oshkosh, WI 54901, United States of America",54901,Oshkosh,Winnebago County,Wisconsin,WI,United States,us
"Pittsburgh, PA 15282",40.4352462,-79.9859052,"Pittsburgh, PA 15282, United States of America",15282,Pittsburgh,Allegheny County,Pennsylvania,PA,United States,us
"Pomona, CA 91768",34.06795759,-117.7779841,"Pomona, CA 91768, United States of America",91768,Pomona,Los Angeles County,California,CA,United States,us
"Providence, RI 02912",41.82731868,-71.4009933,"Providence, RI 02912, United States of America",02912,Providence,Providence County,Rhode Island,RI,United States,us
"Pullman, WA 99164",46.7289611,-117.1575069,"Pullman, WA 99164, United States of America",99164,Pullman,Whitman County,Washington,WA,United States,us
"Riverside, CA 92506",33.95378383,-117.3925628,"Riverside, CA 92506, United States of America",92506,Riverside,Riverside County,California,CA,United States,us
"Riyadh, Saudi Arabia",24.638916,46.7160104,"Riyadh 11131, Saudi Arabia",11131,Riyadh,Riyadh governorate,Riyadh Region,,Saudi Arabia,sa
"Rocky Mount, NC 27804",35.9725769,-77.82885934,"Rocky Mount, NC 27804, United States of America",27804,Rocky Mount,Edgecombe County,North Carolina,NC,United States,us
"Rome, Italy",41.8933203,12.4829321,"Rome, LAZ, Italy",,Rome,Roma Capitale,Lazio,LAZ,Italy,it
"Sacramento, CA 95819",38.56330615,-121.4349251,"Sacramento, CA 95819, United States of America",95819,Sacramento,Sacramento County,California,CA,United States,us
"Saint Louis, MO 63110",38.62341645,-90.25652225,"St. Louis, MO 63110, United States of America",63110,St. Louis,,Missouri,MO,United States,us
"Salina, KS 67401",38.8402805,-97.6114237,"Salina (Salina), KS 67401, United States of America",67401,Salina,Saline County,Kansas,KS,United States,us
"Salisbury, MD 21801",38.36941906,-75.61286814,"Salisbury, MD 21801, United States of America",21801,Salisbury,Wicomico County,Maryland,MD,United States,us
"San Angelo, TX 76909",31.44148761,-100.4613628,"San Angelo, TX 76909, United States of America",76909,San Angelo,Tom Green County,Texas,TX,United States,us
"San Antonio, TX 78249",29.56659632,-98.61533808,"San Antonio, TX 78249, United States of America",78249,San Antonio,Bexar County,Texas,TX,United States,us
"San Bernardino, CA 92407",34.1081621,-117.28946,"San Bernardino, CA, United States of America",,San Bernardino,San Bernardino County,California,CA,United States,us
"San Rafael, CA 94901",37.96996605,-122.5208755,"San Rafael, CA 94901, United States of America",94901,San Rafael,Marin County,California,CA,United States,us
"Santa Clarita, CA 91355",34.40066717,-118.5529836,"Santa Clarita, CA 91355, United States of America",91355,Santa Clarita,Los Angeles County,California,CA,United States,us
"Scranton, PA 18509",41.42685571,-75.64900952,"Scranton, PA 18509, United States of America",18509,Scranton,Lackawanna County,Pennsylvania,PA,United States,us
"Scranton, PA 18510",41.40935024,-75.6466682,"Scranton, PA 18510, United States of America",18510,Scranton,Lackawanna County,Pennsylvania,PA,United States,us
"Seattle, WA 98119",47.639394,-122.3667885,"Seattle, WA 98119, United States of America",98119,Seattle,King County,Washington,WA,United States,us
"Seattle, WA 98122",47.61081467,-122.3036608,"Seattle, WA 98122, United States of America",98122,Seattle,King County,Washington,WA,United States,us
"Shanghai, China",31.2323437,121.4691024,"200001 Shanghai, China",200001,Shanghai,,Shanghai,,China,cn
"Sharon, PA 16146",41.2331116,-80.4934035,"Sharon (Sharon), PA 16146, United States of America",16146,Sharon,Mercer County,Pennsylvania,PA,United States,us
"Spartanburg, SC 29301",34.9498007,-81.9320157,"Spartanburg, SC, United States of America",,Spartanburg,Spartanburg County,South Carolina,SC,United States,us
"Spartanburg, SC 29303",34.9498007,-81.9320157,"Spartanburg, SC, United States of America",,Spartanburg,Spartanburg County,South Carolina,SC,United States,us
"Spokane, WA 99258",47.667371,-117.405326,"Spokane, WA 99258, United States of America",99258,Spokane,Spokane County,Washington,WA,United States,us
"Springfield, MA 01109",42.11336523,-72.55311452,"Springfield, MA 01109, United States of America",01109,Springfield,Hampden County,Massachusetts,MA,United States,us
"St Davids, PA 19087",40.06765654,-75.42101604,"Tredyffrin Township, PA 19087, United States of America",19087,Tredyffrin Township,Chester County,Pennsylvania,PA,United States,us
"St Joseph, MO 64507",39.74287999,-94.79543795,"Saint Joseph, MO 64507, United States of America",64507,Saint Joseph,Buchanan County,Missouri,MO,United States,us
"St Louis, MO",38.6280278,-90.1910154,"St. Louis, MO, United States of America",,St. Louis,,Missouri,MO,United States,us
"St, Powell, WY 82435",44.752873,-108.75902,"Powell, WY, United States of America",,Powell,Park County,Wyoming,WY,United States,us
"St. Petersburg, FL 33701",27.77057188,-82.63873677,"Saint Petersburg, FL 33701, United States of America",33701,Saint Petersburg,Pinellas County,Florida,FL,United States,us
"Stevenson, MD 21153",39.4102772,-76.7128314,"Towson, MD 21153, United States of America",21153,Towson,Baltimore County,Maryland,MD,United States,us
"Tallahassee, FL 32306",30.44259313,-84.29916335,"Tallahassee, FL 32306, United States of America",32306,Tallahassee,Leon County,Florida,FL,United States,us
"Teaneck, NJ",40.8860164,-74.0072568,"Teaneck, NJ, United States of America",,Teaneck,Bergen County,New Jersey,NJ,United States,us
"Tucson, AZ 85721",32.23350355,-110.9508565,"Tucson, AZ 85721, United States of America",85721,Tucson,Pima County,Arizona,AZ,United States,us
"Turlock, CA 95382",37.52253404,-120.8662223,"Turlock, CA 95382, United States of America",95382,Turlock,Stanislaus County,California,CA,United States,us
"USAF Academy, CO 80840",39.01309085,-104.8868756,"U.S. Air Force Academy, Faculty Drive, United States Air Force Academy, CO 80840, United States of America",80840,United States Air Force Academy,El Paso County,Colorado,CO,United States,us
"Waltham, MA",42.3756401,-71.2358004,"Waltham, MA, United States of America",,Waltham,Middlesex County,Massachusetts,MA,United States,us
"Waltham, MA 02454",42.3764147,-71.2365688,"Waltham, MA 02454, United States of America",02454,Waltham,Middlesex County,Massachusetts,MA,United States,us
"Washington, DC 20057",38.8950368,-77.0365427,"Washington, DC, United States of America",,Washington,,District of Columbia,DC,United States,us
"Washington, PA 15301",40.17396,-80.2461714,"Washington (Washington), PA 15301, United States of America",15301,Washington,Washington County,Pennsylvania,PA,United States,us
"Whittier, CA 90608",33.9785131,-118.0296926,"Whittier, CA 90608, United States of America",90608,Whittier,Los Angeles County,California,CA,United States,us
"Wichita Falls, TX 76308",33.86707316,-98.5327754,"Wichita Falls, TX 76308, United States of America",76308,Wichita Falls,Wichita County,Texas,TX,United States,us
"Wingate, NC 28174",34.9843176,-80.4492319,"Wingate (Wingate), NC 28174, United States of America",28174,Wingate,Union County,North Carolina,NC,United States,us
"Worcester, MA 01610",42.25453524,-71.81656621,"Worcester, MA 01610, United States of America",01610,Worcester,Worcester County,Massachusetts,MA,United States,us
"Akron, OH 44325",41.07605329,-81.51328724,"Akron, OH 44325, United States of America",44325,Akron,Summit County,Ohio,OH,United States,us
"Allendale, MI 49401",42.9722455,-85.9536535,"Allendale Charter Township, MI 49401, United States of America",49401,Allendale Charter Township,Ottawa County,Michigan,MI,United States,us
"Andover, MA 01810",42.65031034,-71.14591217,"Andover, MA 01810, United States of America",01810,Andover,Essex County,Massachusetts,MA,United States,us
"Baltimore, MD 21218",39.32695568,-76.60378322,"Baltimore, MD 21218, United States of America",21218,Baltimore,,Maryland,MD,United States,us
"Bejing, China",39.9057136,116.3912972,"100010 Beijing, China",100010,Beijing,,Beijing,,China,cn
"Belmont, NC 28012",35.2438272,-81.0377322,"Belmont, NC 28012, United States of America",28012,Belmont,Gaston County,North Carolina,NC,United States,us
"Bethany, WV 26032",40.205627,-80.5567384,"Bethany (Bethany), WV, United States of America",,Bethany,Brooke County,West Virginia,WV,United States,us
"Bothell, WA 98011",47.75803609,-122.1985255,"Bothell, WA 98011, United States of America",98011,Bothell,King County,Washington,WA,United States,us
"Buffalo, NY 14208",42.91460337,-78.85122643,"Buffalo, NY 14208, United States of America",14208,Buffalo,Erie County,New York,NY,United States,us
"Buffalo, NY 14222",42.91608672,-78.87715834,"Buffalo, NY 14222, United States of America",14222,Buffalo,Erie County,New York,NY,United States,us
"Clinton, NY 13323",43.0484029,-75.3785034,"Kirkland (Clinton), NY, United States of America",,Clinton,Oneida County,New York,NY,United States,us
"College Place, WA 99324",46.0491763,-118.388041,"College Place, WA 99324, United States of America",99324,College Place,Walla Walla County,Washington,WA,United States,us
"Columbus, OH 43209",39.9622601,-83.0007065,"Columbus, OH, United States of America",,Columbus,Franklin County,Ohio,OH,United States,us
"Corpus Christi, TX 78412",27.70614405,-97.35209775,"Corpus Christi, TX 78412, United States of America",78412,Corpus Christi,Nueces County,Texas,TX,United States,us
"Cullowhee, NC 28723",35.3137739,-83.1765814,"Cullowhee (Cullowhee), NC 28723, United States of America",28723,Cullowhee,Jackson County,North Carolina,NC,United States,us
"Dahlonega, GA 30597",34.52899573,-83.98686775,"Dahlonega, GA 30597, United States of America",30597,Dahlonega,Lumpkin County,Georgia,GA,United States,us
"Delhi, NY 13753",42.2781401,-74.9159946,"Delhi, NY 13753, United States of America",13753,Delhi,Delaware County,New York,NY,United States,us
"Des Moines, IA 50311",41.60147629,-93.66647558,"Des Moines, IA 50311, United States of America",50311,Des Moines,Polk County,Iowa,IA,United States,us
"East Lansing, MI 48825",42.7315076,-84.48664428,"East Lansing, MI 48825, United States of America",48825,East Lansing,Ingham County,Michigan,MI,United States,us
"Easton, PA 18042",40.67904211,-75.21951102,"Easton, PA 18042, United States of America",18042,Easton,Northampton County,Pennsylvania,PA,United States,us
"Elizabethtown, PA 17022",40.153364,-76.6042521,"Elizabethtown (Elizabethtown), PA 17022, United States of America",17022,Elizabethtown,Lancaster County,Pennsylvania,PA,United States,us
"Emporia, KS 66801",38.4040054,-96.181623,"Emporia (Emporia), KS 66801, United States of America",66801,Emporia,Lyon County,Kansas,KS,United States,us
"Fall River, MA 02720",41.723461,-71.13388911,"Fall River, MA 02720, United States of America",02720,Fall River,Bristol County,Massachusetts,MA,United States,us
"Fayetteville, NC 28301",35.06767108,-78.88157953,"Fayetteville, NC 28301, United States of America",28301,Fayetteville,Cumberland County,North Carolina,NC,United States,us
"Fresno, CA 93740",36.81287262,-119.7498871,"Fresno, CA 93740, United States of America",93740,Fresno,Fresno County,California,CA,United States,us
"Greeley, CO 80639",40.40284799,-104.6997929,"Greeley, CO 80639, United States of America",80639,Greeley,Weld County,Colorado,CO,United States,us
"Honolulu, HI 96822",21.30587967,-157.8270401,"Honolulu County, HI 96822, United States of America",96822,,Honolulu County,Hawaii,HI,United States,us
Huntsville AL 35899,34.7249108,-86.6404909,"Huntsville, AL 35899, United States of America",35899,Huntsville,Madison County,Alabama,AL,United States,us
"Huntsville, TX 77341",30.7170072,-95.5464553,"Huntsville, TX 77341, United States of America",77341,Huntsville,Walker County,Texas,TX,United States,us
"Indianapolis, IN 46208",39.82215335,-86.17028708,"Indianapolis, IN 46208, United States of America",46208,Indianapolis,Marion County,Indiana,IN,United States,us
"Jackson, TN 38305",35.68448934,-88.82712894,"Jackson, TN 38305, United States of America",38305,Jackson,Madison County,Tennessee,TN,United States,us
"Kapolei, HI 96707",21.3340079,-158.077849,"Kapolei, HI 96707, United States of America",96707,Kapolei,Honolulu County,Hawaii,HI,United States,us
"Knoxville, TN 37998",35.9603948,-83.9210261,"Knoxville, TN, United States of America",,Knoxville,Knox County,Tennessee,TN,United States,us
"Lamoni, IA 50140",40.6228083,-93.9342515,"Lamoni, IA 50140, United States of America",50140,Lamoni,Decatur County,Iowa,IA,United States,us
"Manchester, NH 03102",42.99661359,-71.48490656,"Manchester, NH 03102, United States of America",03102,Manchester,Hillsborough County,New Hampshire,NH,United States,us
"Memphis, TN 38152",35.11901742,-89.9390333,"Memphis, TN 38152, United States of America",38152,Memphis,Shelby County,Tennessee,TN,United States,us
"Miami, FL 33199",25.7741728,-80.19362,"Miami, FL, United States of America",,Miami,Miami-Dade County,Florida,FL,United States,us
"Middletown, PA 17057",40.1997955,-76.7310903,"Middletown (Middletown), PA 17057, United States of America",17057,Middletown,Dauphin County,Pennsylvania,PA,United States,us
"Millersville, PA 17551",39.997998,-76.3545372,"Millersville, PA 17551, United States of America",17551,Millersville,Lancaster County,Pennsylvania,PA,United States,us
"Nashville, TN 37240",36.1622767,-86.7742984,"Nashville, TN, United States of America",,Nashville,Davidson County,Tennessee,TN,United States,us
"Natchitoches, LA 71497",31.74734,-93.0989873,"Natchitoches, LA 71497, United States of America",71497,Natchitoches,Natchitoches Parish,Louisiana,LA,United States,us
"New London, CT 06320",41.3556187,-72.0997804,"New London, CT 06320, United States of America",06320,New London,Southeastern Connecticut Planning Region,Connecticut,CT,United States,us
"New Paltz, NY 12561",41.7464972,-74.0844894,"New Paltz, NY 12561, United States of America",12561,New Paltz,Ulster County,New York,NY,United States,us
"North Canton, OH 44720",40.875891,-81.4023356,"North Canton, OH, United States of America",,North Canton,Stark County,Ohio,OH,United States,us
"Northfield, MN 55057",44.4582041,-93.161159,"Northfield (Northfield), MN 55057, United States of America",55057,Northfield,Rice County,Minnesota,MN,United States,us
"Norwalk, CA 90650",33.9092802,-118.0849169,"Norwalk, CA 90650, United States of America",90650,Norwalk,Los Angeles County,California,CA,United States,us
"Ogden, UT 84408",41.19175081,-111.9461698,"Ogden, UT 84408, United States of America",84408,Ogden,Weber County,Utah,UT,United States,us
"Oxford, GA 30054",33.6190031,-83.8674052,"Oxford, GA, United States of America",,Oxford,Newton County,Georgia,GA,United States,us
"Pasadena, CA 91106",34.14099248,-118.1266205,"Pasadena, CA 91106, United States of America",91106,Pasadena,Los Angeles County,California,CA,United States,us
"Pasadena, CA 91125",34.1346407,-118.1248551,"Pasadena, CA 91125, United States of America",91125,Pasadena,Los Angeles County,California,CA,United States,us
"Portland, ME 04104",43.6573605,-70.2586618,"Portland, ME, United States of America",,Portland,Cumberland County,Maine,ME,United States,us
"Potsdam, NY 13699",44.6697996,-74.9813349,"Potsdam, NY 13699, United States of America",13699,Potsdam,Saint Lawrence County,New York,NY,United States,us
"Queens, NY 11367",40.72879758,-73.82105518,"New York, NY 11367, United States of America",11367,New York,,New York,NY,United States,us
"Queens, NY 11439",40.7659042,-73.79332363,"New York, NY 11439, United States of America",11439,New York,,New York,NY,United States,us
"Rock Hill, SC 29733",34.95111423,-81.0312231,"Rock Hill, SC 29733, United States of America",29733,Rock Hill,York County,South Carolina,SC,United States,us
"Salisbury, NC 28144",35.68482938,-80.46935931,"Salisbury, NC 28144, United States of America",28144,Salisbury,Rowan County,North Carolina,NC,United States,us
"San Diego, CA 92110",32.77009243,-117.1986454,"San Diego, CA 92110, United States of America",92110,San Diego,San Diego County,California,CA,United States,us
"Selinsgrove, PA 17870",40.8062437,-76.8607084,"Selinsgrove (Selinsgrove), PA, United States of America",,Selinsgrove,Snyder County,Pennsylvania,PA,United States,us
"Sewanee, TN 37383",35.2031373,-85.9210899,"Sewanee (Sewanee), TN 37383, United States of America",37383,Sewanee,Franklin County,Tennessee,TN,United States,us
"Somerville, NJ 08876",40.5742696,-74.60988,"Somerville, NJ, United States of America",,Somerville,Somerset County,New Jersey,NJ,United States,us
"St Louis, MO 63130",38.65807977,-90.31562512,"University City, MO 63130, United States of America",63130,University City,Saint Louis County,Missouri,MO,United States,us
"St Paul, MN 55104",44.954304,-93.15673614,"Saint Paul, MN 55104, United States of America",55104,Saint Paul,Ramsey County,Minnesota,MN,United States,us
"Storm Lake, IA 50588",42.6452817,-95.1992726,"Storm Lake (Storm Lake), IA, United States of America",,Storm Lake,Buena Vista County,Iowa,IA,United States,us
"Toledo, OH 43606",41.66968439,-83.60328014,"Toledo, OH 43606, United States of America",43606,Toledo,Lucas County,Ohio,OH,United States,us
"Towson, MD 21252",39.4018513,-76.6023803,"Towson, MD 21252, United States of America",21252,Towson,Baltimore County,Maryland,MD,United States,us
"Tri-Cities, WA",46.225460049999995,-119.2208907,"Tri-Cities Center, Kennewick, WA, United States of America",,Kennewick,Benton County,Washington,WA,United States,us
"Tulsa, OK 74104",36.14662923,-95.95303935,"Tulsa, OK 74104, United States of America",74104,Tulsa,Tulsa County,Oklahoma,OK,United States,us
"Valparaiso, IN 46383",41.48986245,-87.03843581,"Valparaiso, IN 46383, United States of America",46383,Valparaiso,Porter County,Indiana,IN,United States,us
"Vancouver V6T IV4, BC Canada",49.2636516,-123.2375112,"University of British Columbia, Electoral Area A, BC V6T, Canada",V6T,Electoral Area A,Metro Vancouver Regional District,British Columbia,BC,Canada,ca
"Victoria, TX 77901",28.81263677,-96.99817779,"Victoria, TX 77901, United States of America",77901,Victoria,Victoria County,Texas,TX,United States,us
"Victorville, CA 92392",34.48743195,-117.3378502,"Victorville, CA 92392, United States of America",92392,Victorville,San Bernardino County,California,CA,United States,us
"Waltham, MA 02452",42.38851676,-71.22352576,"Waltham, MA 02452, United States of America",02452,Waltham,Middlesex County,Massachusetts,MA,United States,us
"Warrensburg, MO 64093",38.7624373,-93.7409596,"Warrensburg, MO 64093, United States of America",64093,Warrensburg,Johnson County,Missouri,MO,United States,us
"Westfield, MA 01086",42.1327611,-72.7943407,"Westfield, MA 01086, United States of America",01086,Westfield,Hampden County,Massachusetts,MA,United States,us
"Winona, MN 55987",44.0500054,-91.6392294,"Winona, MN 55987, United States of America",55987,Winona,Winona County,Minnesota,MN,United States,us
"Wise, VA 24293",36.9759345,-82.5757108,"Wise (Wise), VA 24293, United States of America",24293,Wise,Wise County,Virginia,VA,United States,us
"Zhuhai, Guangdong, China",22.273734,113.5721327,"Zhuhai, Guangdong Province, China",,Zhuhai,,Guangdong Province,,China,cn
"Altoona, PA 16601",40.5481284,-78.37077213,"Logan Township, PA 16601, United States of America",16601,Logan Township,Blair County,Pennsylvania,PA,United States,us
"Atlanta, GA 30319",33.7489924,-84.3902644,"Atlanta, GA, United States of America",,Atlanta,Fulton County,Georgia,GA,United States,us
"Bennington, VT 05201",42.88910911,-73.15316304,"Bennington, VT 05201, United States of America",05201,Bennington,Bennington County,Vermont,VT,United States,us
"Bowling Green, KY 42101",36.9903199,-86.4436018,"Bowling Green, KY 42101, United States of America",42101,Bowling Green,Warren County,Kentucky,KY,United States,us
"Camarillo, CA 93012",34.21158948,-119.0123105,"Camarillo, CA 93012, United States of America",93012,Camarillo,Ventura County,California,CA,United States,us
"Cambridge, MA 02138",42.3656347,-71.1040018,"Cambridge, MA, United States of America",,Cambridge,Middlesex County,Massachusetts,MA,United States,us
"Cleveland, OH 44106",41.50404986,-81.61150491,"Cleveland, OH 44106, United States of America",44106,Cleveland,Cuyahoga County,Ohio,OH,United States,us
"Columbia, MO 65211",38.93954715,-92.33128162,"Columbia, MO 65211, United States of America",65211,Columbia,Boone County,Missouri,MO,United States,us
"Conway, AR 72035",35.07941988,-92.45732504,"Conway, AR 72035, United States of America",72035,Conway,Faulkner County,Arkansas,AR,United States,us
"Due West, SC 29639",34.3334469,-82.387902,"Due West (Due West), SC 29639, United States of America",29639,Due West,Abbeville County,South Carolina,SC,United States,us
"East Lansing, MI 40502",42.7320307,-84.4721678,"East Lansing, MI, United States of America",,East Lansing,Ingham County,Michigan,MI,United States,us
"Evansville, IN 47712",37.970495,-87.5715641,"Evansville, IN, United States of America",,Evansville,Vanderburgh County,Indiana,IN,United States,us
"Exeter, United Kingdom EX4 4ND",50.7363268,-3.5371918,"Exeter, EX4 4ND, United Kingdom",EX4 4ND,Exeter,Devon,England,ENG,United Kingdom,gb
"Fairfield, CT 06824",41.16064572,-73.26347353,"Fairfield, CT 06824, United States of America",06824,Fairfield,Greater Bridgeport Planning Region,Connecticut,CT,United States,us
"Farmingdale, NY 11735",40.7328811,-73.4458564,"Farmingdale, NY, United States of America",,Farmingdale,Nassau County,New York,NY,United States,us
"Fayetteville, AR 72701",36.04935745,-94.13845649,"Fayetteville, AR 72701, United States of America",72701,Fayetteville,Washington County,Arkansas,AR,United States,us
"Fort Wayne, IN 46803",41.06933977,-85.105811,"Fort Wayne, IN 46803, United States of America",46803,Fort Wayne,Allen County,Indiana,IN,United States,us
"Fredericksburg, VA 22401",38.29629469,-77.48292185,"Fredericksburg, VA 22401, United States of America",22401,Fredericksburg,,Virginia,VA,United States,us
"Fredonia, NY 14063",42.440058,-79.331711,"Fredonia, NY 14063, United States of America",14063,Fredonia,Chautauqua County,New York,NY,United States,us
"Hampden-Sydney, VA 23943",37.2423746,-78.4597173,"Hampden Sydney, VA 23943, United States of America",23943,Hampden Sydney,Prince Edward County,Virginia,VA,United States,us
"Highland Heights, KY 41099",39.0330902,-84.4521512,"Highland Heights, KY 41099, United States of America",41099,Highland Heights,Campbell County,Kentucky,KY,United States,us
"Kennesaw, GA 30144",34.0234337,-84.6154897,"Kennesaw (Kennesaw), GA 30144, United States of America",30144,Kennesaw,Cobb County,Georgia,GA,United States,us
"Klamath Falls, OR 97601",42.224867,-121.78167,"Klamath Falls, OR 97601, United States of America",97601,Klamath Falls,Klamath County,Oregon,OR,United States,us
"Kushan, China",38.5050627,75.6006169,"Kushan River, Kizilto town, Aqto County, China",,Kizilto town,Aqto County,Xinjiang,,China,cn
"Las Vegas, NV 89154",36.1672559,-115.148516,"Las Vegas, NV, United States of America",,Las Vegas,Clark County,Nevada,NV,United States,us
"Lawrenceville, GA 30043",33.9566391,-83.9890066,"Lawrenceville (Lawrenceville), GA, United States of America",,Lawrenceville,Gwinnett County,Georgia,GA,United States,us
"Madison, WI 53706",43.0746136,-89.41092039,"Madison, WI 53706, United States of America",53706,Madison,Dane County,Wisconsin,WI,United States,us
"Mansfield, Ohio",40.75839,-82.5154471,"Mansfield (Mansfield), OH, United States of America",,Mansfield,Richland County,Ohio,OH,United States,us
"Marlboro, VT 05344",42.87005918,-72.73264283,"Marlboro, VT 05344, United States of America",05344,Marlboro,Windham County,Vermont,VT,United States,us
"Martin, TN 38238",36.34287547,-88.86436935,"Martin, TN 38238, United States of America",38238,Martin,Weakley County,Tennessee,TN,United States,us
"Merced, CA 95343",37.3636536,-120.4250675,"Merced, CA 95343, United States of America",95343,Merced,Merced County,California,CA,United States,us
"Mississauga, ON",43.5896231,-79.6443879,"Mississauga, ON, Canada",,Mississauga,Peel Region,Ontario,ON,Canada,ca
"Newtown, PA 18940",40.24761807,-74.93870194,"Newtown Township, PA 18940, United States of America",18940,Newtown Township,Bucks County,Pennsylvania,PA,United States,us
"Normal, IL 61790",40.5103879,-88.9905186,"Normal, IL 61790, United States of America",61790,Normal,McLean County,Illinois,IL,United States,us
"Oberlin, OH 47074",41.289129,-82.222121,"Oberlin (Oberlin), OH, United States of America",,Oberlin,Lorain County,Ohio,OH,United States,us
"Oglesby, IL 61348",41.2953127,-89.0595266,"Oglesby, IL 61348, United States of America",61348,Oglesby,LaSalle County,Illinois,IL,United States,us
"Plattsburgh, NY 12901",44.6951801,-73.4549227,"Plattsburgh, NY, United States of America",,Plattsburgh,Clinton County,New York,NY,United States,us
"Princeton, NJ 08541",40.3496953,-74.6597376,"Princeton, NJ, United States of America",,Princeton,Mercer County,New Jersey,NJ,United States,us
"Rapid City, SD 57701",44.08126586,-103.213849,"Rapid City, SD 57701, United States of America",57701,Rapid City,Pennington County,South Dakota,SD,United States,us
"Reading, PA 19610",40.335345,-75.9279495,"Reading, PA, United States of America",,Reading,Berks County,Pennsylvania,PA,United States,us
"Redlands, CA 92093",34.0550328,-117.1827445,"Redlands, CA, United States of America",,Redlands,San Bernardino County,California,CA,United States,us
"Riverside, CA 92521",33.97296612,-117.3286603,"Riverside, CA 92521, United States of America",92521,Riverside,Riverside County,California,CA,United States,us
"Salt Lake City, UT, 84123",40.7596198,-111.886797,"Salt Lake City, UT, United States of America",,Salt Lake City,Salt Lake County,Utah,UT,United States,us
"San Marcos, CA 92096",33.1320499,-117.15979,"San Marcos, CA 92096, United States of America",92096,San Marcos,San Diego County,California,CA,United States,us
"Seaside, CA 93955",36.62593,-121.816926,"Seaside, CA 93955, United States of America",93955,Seaside,Monterey County,California,CA,United States,us
"Sherman, TX 75090",33.64573792,-96.59399835,"Sherman, TX 75090, United States of America",75090,Sherman,Grayson County,Texas,TX,United States,us
Singapore 117511,1.2899175,103.8519072,Singapore,,Singapore,,,,Singapore,sg
Singapore 138593,1.2899175,103.8519072,Singapore,,Singapore,,,,Singapore,sg
"Spartanburg, SC 29302",34.9498007,-81.9320157,"Spartanburg, SC, United States of America",,Spartanburg,Spartanburg County,South Carolina,SC,United States,us
"St Charles, MO 63301",38.81737909,-90.49891802,"Saint Charles, MO 63301, United States of America",63301,Saint Charles,Saint Charles County,Missouri,MO,United States,us
"St Louis, MO 63141",38.66014236,-90.45303844,"Creve Coeur, MO 63141, United States of America",63141,Creve Coeur,Saint Louis County,Missouri,MO,United States,us
"Staten Island, NY 10301",40.62967935,-74.09383751,"New York, NY 10301, United States of America",10301,New York,,New York,NY,United States,us
"Tacoma, WA 98416",47.259663,-122.4839292,"Tacoma, WA 98416, United States of America",98416,Tacoma,Pierce County,Washington,WA,United States,us
"Tempe, AZ 85287",33.3913192,-111.9185448,"Tempe, AZ 85287, United States of America",85287,Tempe,Maricopa County,Arizona,AZ,United States,us
"Upper Montclair, NJ 07043",40.8462107,-74.2012565,"Upper Montclair (Montclair), NJ 07043, United States of America",07043,Montclair,Essex County,New Jersey,NJ,United States,us
"Vancouver, WA 98686",45.6306954,-122.6744557,"Vancouver, WA, United States of America",,Vancouver,Clark County,Washington,WA,United States,us
"Wayne, NJ 07470",40.9491723,-74.2376802,"Wayne, NJ 07470, United States of America",07470,Wayne,Passaic County,New Jersey,NJ,United States,us
"Willimantic, Connecticut",41.713125,-72.217885,"Windham (Willimantic), CT 06226, United States of America",06226,Willimantic,Southeastern Connecticut Planning Region,Connecticut,CT,United States,us
"Aberdeen, SD 57401",45.4649805,-98.487813,"Aberdeen, SD 57401, United States of America",57401,Aberdeen,Brown County,South Dakota,SD,United States,us
"Albion, MI 49224",42.243097,-84.7530304,"Albion, MI 49224, United States of America",49224,Albion,Calhoun County,Michigan,MI,United States,us
"Angola, IN 46703",41.634874,-84.99928,"Angola (Angola), IN, United States of America",,Angola,Steuben County,Indiana,IN,United States,us
"Baytown, TX 77522",29.7728853,-95.0032997,"Baytown, TX 77522, United States of America",77522,Baytown,Harris County,Texas,TX,United States,us
"Beloit, WI 53511",42.52501278,-89.03408963,"Beloit, WI 53511, United States of America",53511,Beloit,Rock County,Wisconsin,WI,United States,us
"Boca Raton, FL 33431",26.37875981,-80.10015647,"Boca Raton, FL 33431, United States of America",33431,Boca Raton,Palm Beach County,Florida,FL,United States,us
"Boise, ID 83725",43.60433211,-116.2045946,"Boise, ID 83725, United States of America",83725,Boise,Ada County,Idaho,ID,United States,us
"Boston, MA 02114",42.36066796,-71.06667455,"Boston, MA 02114, United States of America",02114,Boston,Suffolk County,Massachusetts,MA,United States,us
"Bronx, NY 10453",40.85227109,-73.91208191,"New York, NY 10453, United States of America",10453,New York,,New York,NY,United States,us
"Brooklyn, NY 11216",40.68060214,-73.94939134,"New York, NY 11216, United States of America",11216,New York,Kings County,New York,NY,United States,us
"Buzzards Bay, MA 02532",41.7452589,-70.6154965,"Buzzards Bay (Bourne), MA 02532, United States of America",02532,Bourne,Barnstable County,Massachusetts,MA,United States,us
"Chattanooga, TN 37406",35.06654171,-85.24682606,"Chattanooga, TN 37406, United States of America",37406,Chattanooga,Hamilton County,Tennessee,TN,United States,us
"Chicago, IL 60603",41.88062503,-87.62804792,"Chicago, IL 60603, United States of America",60603,Chicago,Cook County,Illinois,IL,United States,us
"Chicago, IL 60637",41.78698416,-87.5973704,"Chicago, IL 60637, United States of America",60637,Chicago,Cook County,Illinois,IL,United States,us
"Colorado Springs, CO 80903",38.83902194,-104.8136172,"Colorado Springs, CO 80903, United States of America",80903,Colorado Springs,El Paso County,Colorado,CO,United States,us
"Denton, TX 76201",33.21534139,-97.13797552,"Denton, TX 76201, United States of America",76201,Denton,Denton County,Texas,TX,United States,us
"East Lansing, MI 40506",42.7320307,-84.4721678,"East Lansing, MI, United States of America",,East Lansing,Ingham County,Michigan,MI,United States,us
"East Stroudsburg, PA 18301",40.9995386,-75.1812913,"East Stroudsburg (East Stroudsburg), PA 18301, United States of America",18301,East Stroudsburg,Monroe County,Pennsylvania,PA,United States,us
"Fond du Lac, WI 54935",43.77311386,-88.4417488,"Fond du Lac, WI 54935, United States of America",54935,Fond du Lac,Fond du Lac County,Wisconsin,WI,United States,us
"Fort Lauderdale, Florida, 33314",26.1223084,-80.1433786,"Fort Lauderdale, FL, United States of America",,Fort Lauderdale,Broward County,Florida,FL,United States,us
"Fort Wayne, Indiana 46803",41.06933977,-85.105811,"Fort Wayne, IN 46803, United States of America",46803,Fort Wayne,Allen County,Indiana,IN,United States,us
"Fort Worth, TX 76129",32.70867206,-97.35945519,"Fort Worth, TX 76129, United States of America",76129,Fort Worth,Tarrant County,Texas,TX,United States,us
"Glen Ellyn, IL 60137",41.8775293,-88.0670118,"Glen Ellyn, IL 60137, United States of America",60137,Glen Ellyn,DuPage County,Illinois,IL,United States,us
"Grinnell, IA 50112",41.7430237,-92.7239637,"Grinnell (Grinnell), IA 50112, United States of America",50112,Grinnell,Poweshiek County,Iowa,IA,United States,us
Guangzhou PR of China 510641,27.723303,106.926929,"36 广州路 Guangzhou Rd, Zunyi, 563000 Guizhou, China",563000,Zunyi,Zunyi,Guizhou,,China,cn
"Hammond, LA 70402",30.51487414,-90.46893618,"Hammond, LA 70402, United States of America",70402,Hammond,Tangipahoa Parish,Louisiana,LA,United States,us
"Kenosha, WI 53141",42.5846773,-87.8212263,"Kenosha, WI, United States of America",,Kenosha,Kenosha County,Wisconsin,WI,United States,us
"LaJolla, CA 92093",32.87923731,-117.2394473,"San Diego, CA 92093, United States of America",92093,San Diego,San Diego County,California,CA,United States,us
"Lansing, MI 48824",42.7337712,-84.5553805,"Lansing, MI, United States of America",,Lansing,Ingham County,Michigan,MI,United States,us
"Loudonville, NY 12211",42.70563273,-73.76879913,"Loudonville, NY 12211, United States of America",12211,Loudonville,Albany County,New York,NY,United States,us
"Madison, NJ 07940",40.7598227,-74.417097,"Madison, NJ 07940, United States of America",07940,Madison,Morris County,New Jersey,NJ,United States,us
"Mankato, MN 56001",44.1634663,-93.9993505,"Mankato (Mankato), MN 56001, United States of America",56001,Mankato,Blue Earth County,Minnesota,MN,United States,us
"McMinnville, OR 97128",45.2100367,-123.194463,"McMinnville, OR 97128, United States of America",97128,McMinnville,Yamhill County,Oregon,OR,United States,us
"Mesa, AZ 85212",33.4151005,-111.831455,"Mesa, AZ, United States of America",,Mesa,Maricopa County,Arizona,AZ,United States,us
"Miami, Florida 33199",25.7741728,-80.19362,"Miami, FL, United States of America",,Miami,Miami-Dade County,Florida,FL,United States,us
"Middletown, CT 06459",41.55719953,-72.6553916,"Middletown, CT 06459, United States of America",06459,Middletown,Lower Connecticut River Valley Planning Region,Connecticut,CT,United States,us
"Milton, MA 02186",42.22529392,-71.09167466,"Milton, MA 02186, United States of America",02186,Milton,Norfolk County,Massachusetts,MA,United States,us
"Minneapolis, MN 55454",44.97003311,-93.24330603,"Minneapolis, MN 55454, United States of America",55454,Minneapolis,Hennepin County,Minnesota,MN,United States,us
"Mississauga, ON CA L5L 1C6",43.5514234,-79.6633407,"Mississauga, ON L5L 1C6, Canada",L5L 1C6,Mississauga,Peel Region,Ontario,ON,Canada,ca
"Mt Vernon, IA 52314",41.9222443,-91.4171209,"Mount Vernon (Mount Vernon), IA 52314, United States of America",52314,Mount Vernon,Linn County,Iowa,IA,United States,us
"New Orleans, LA 70125",29.95198335,-90.1045978,"New Orleans, LA 70125, United States of America",70125,New Orleans,Orleans Parish,Louisiana,LA,United States,us
"Notre Dame, IN 46556",41.6992003,-86.2373691,"Notre Dame (Notre Dame), IN 46556, United States of America",46556,Notre Dame,Saint Joseph County,Indiana,IN,United States,us
"Ottawa, ON Canada K1S 5B6",45.3843993,-75.69620533,"Capital, Ottawa, ON K1S 5B6, Canada",K1S 5B6,Ottawa,,Ontario,ON,Canada,ca
"Philadelphia, PA 19141",40.03599301,-75.14451792,"Philadelphia, PA 19141, United States of America",19141,Philadelphia,Philadelphia County,Pennsylvania,PA,United States,us
"Raleigh, NC 27607",35.80839093,-78.70117914,"Raleigh, NC 27607, United States of America",27607,Raleigh,Wake County,North Carolina,NC,United States,us
"Rohnert Park, CA 94928",38.34420386,-122.6949968,"Rohnert Park, CA 94928, United States of America",94928,Rohnert Park,Sonoma County,California,CA,United States,us
"San Francisco, CA 94132",37.72769662,-122.4786605,"San Francisco, CA 94132, United States of America",94132,San Francisco,,California,CA,United States,us
"Santa Cruz, CA 95064",36.99381997,-122.0595352,"Santa Cruz, CA 95064, United States of America",95064,Santa Cruz,Santa Cruz County,California,CA,United States,us
"Seoul, 01 KR 120-749",37.539619,127.009676,"Seoul, South Korea",,Seoul,Yongsan,Seoul,,South Korea,kr
"Sharjah, United Arab Emirates",25.3461498,55.4210633,"Sharjah, Sharjah Emirate, United Arab Emirates",,Sharjah,,Sharjah Emirate,,United Arab Emirates,ae
"Shreveport, LA 71115",32.5135356,-93.7477839,"Shreveport, LA, United States of America",,Shreveport,Caddo Parish,Louisiana,LA,United States,us
"Singapore 138614, 01 Singapore",1.364975,103.865258,"01-01 1 Maju Ave, MyVillage, Singapore 556679, Singapore",556679,Singapore,Singapore,Singapore,,Singapore,sg
"St Bonaventure, NY 14778",42.0797893,-78.4807789,"Allegany, NY 14778, United States of America",14778,Town of Allegany,Cattaraugus County,New York,NY,United States,us
"Sydney, Australia",-33.8698439,151.2082848,"Sydney, NSW, Australia",,Sydney,,New South Wales,NSW,Australia,au
"Terre Haute, IN 47809",39.47027987,-87.40830953,"Terre Haute, IN 47809, United States of America",47809,Terre Haute,Vigo County,Indiana,IN,United States,us
"Toronto, ON Canada M3J 1P3",43.77410145,-79.50290538,"Humber River—Black Creek, Toronto, ON M3J 1P3, Canada",M3J 1P3,Toronto,Golden Horseshoe,Ontario,ON,Canada,ca
"Washington, DC 20007",38.8950368,-77.0365427,"Washington, DC, United States of America",,Washington,,District of Columbia,DC,United States,us
"Washington, DC 20505",38.8950368,-77.0365427,"Washington, DC, United States of America",,Washington,,District of Columbia,DC,United States,us
"West Chester, PA 19380",39.99051685,-75.59348938,"West Goshen Township, PA 19380, United States of America",19380,West Goshen Township,Chester County,Pennsylvania,PA,United States,us
"Wooster, OH 44691",40.7980976,-81.9397733,"Wooster (Wooster), OH 44691, United States of America",44691,Wooster,Wayne County,Ohio,OH,United States,us
"Andover, ME 01810",42.65031034,-71.14591217,"Andover, MA 01810, United States of America",01810,Andover,Essex County,Massachusetts,MA,United States,us
"Babson Park, MA 02457",42.2970161,-71.2550501,"Needham, MA 02457, United States of America",02457,Needham,Norfolk County,Massachusetts,MA,United States,us
"Berea, KY 40404",37.572947,-84.289529,"Berea, KY 40404, United States of America",40404,Berea,Madison County,Kentucky,KY,United States,us
"Buzzards Bay, MA 25320",41.756798,-70.612525,"Bourne (Buzzards Bay), MA, United States of America",,Buzzards Bay,Barnstable County,Massachusetts,MA,United States,us
"Canton, NY 13617",44.5956163,-75.1690942,"Canton, NY, United States of America",,Canton,Saint Lawrence County,New York,NY,United States,us
"Cedarville, OH 45314",39.7442268,-83.8085372,"Cedarville, OH, United States of America",,Cedarville,Greene County,Ohio,OH,United States,us
"County Kildare, Maynooth Ireland",53.3830239,-6.5922806,"Maynooth (Maynooth), L, Ireland",,Maynooth,County Kildare,Leinster,L,Ireland,ie
"Defiance, OH 43512",41.2844933,-84.3557802,"Defiance, OH 43512, United States of America",43512,Defiance,Defiance County,Ohio,OH,United States,us
"Detroit, MI 48202",42.3772656,-83.08186808,"Detroit, MI 48202, United States of America",48202,Detroit,Wayne County,Michigan,MI,United States,us
"Dobbs Ferry, NY 10522",41.0145418,-73.872635,"Dobbs Ferry, NY 10522, United States of America",10522,Dobbs Ferry,Westchester County,New York,NY,United States,us
"Duluth, MN 55811",46.81309115,-92.16497792,"Duluth Heights (Duluth), MN 55811, United States of America",55811,Duluth,Saint Louis County,Minnesota,MN,United States,us
"Eureka, CA 95501",40.79556014,-124.1575454,"Eureka, CA 95501, United States of America",95501,Eureka,Humboldt County,California,CA,United States,us
"Gettysburg, PA 17325",39.8308973,-77.231012,"Gettysburg (Gettysburg), PA 17325, United States of America",17325,Gettysburg,Adams County,Pennsylvania,PA,United States,us
"Hamden, CT 06518",41.41185897,-72.91234977,"Hamden, CT 06518, United States of America",06518,Hamden,South Central Connecticut Planning Region,Connecticut,CT,United States,us
"Hammond, IN 46323",41.58777488,-87.46176693,"Hammond, IN 46323, United States of America",46323,Hammond,Lake County,Indiana,IN,United States,us
"High Point, NC 27268",35.9719138,-79.9945891,"High Point, NC 27268, United States of America",27268,High Point,Guilford County,North Carolina,NC,United States,us
"Huntsville, AL United States 35899",34.7249108,-86.6404909,"Huntsville, AL 35899, United States of America",35899,Huntsville,Madison County,Alabama,AL,United States,us
"Jonesboro, Arkansas 72401",35.83999691,-90.69025517,"Jonesboro, AR 72401, United States of America",72401,Jonesboro,Craighead County,Arkansas,AR,United States,us
"Liaoning Province, China",41.2374106,122.9955469,"Liaoning, China",,,,Liaoning,,China,cn
"Lubbock, TX 70490",33.5855677,-101.8470215,"Lubbock, TX, United States of America",,Lubbock,Lubbock County,Texas,TX,United States,us
"Medford, MA 02155",42.4184296,-71.1061639,"Medford, MA 02155, United States of America",02155,Medford,Middlesex County,Massachusetts,MA,United States,us
"Memphis, TN 38104-5568",35.1460249,-90.0517638,"Memphis, TN, United States of America",,Memphis,Shelby County,Tennessee,TN,United States,us
"Miami, FL 33174",25.7741728,-80.19362,"Miami, FL, United States of America",,Miami,Miami-Dade County,Florida,FL,United States,us
"Minneapolis, MN 55404",44.9604588,-93.25617335,"Minneapolis, MN 55404, United States of America",55404,Minneapolis,Hennepin County,Minnesota,MN,United States,us
"Minneapolis, MN 55455",44.97485638,-93.23384507,"Minneapolis, MN 55455, United States of America",55455,Minneapolis,Hennepin County,Minnesota,MN,United States,us
"New Brunswick, NJ 08901",40.48884839,-74.44567653,"New Brunswick, NJ 08901, United States of America",08901,New Brunswick,Middlesex County,New Jersey,NJ,United States,us
"New Orleans, LA 70148",30.0290559,-90.06499245,"New Orleans, LA 70148, United States of America",70148,New Orleans,Orleans Parish,Louisiana,LA,United States,us
"New York, NY 10002",40.71712076,-73.98924818,"New York, NY 10002, United States of America",10002,New York,New York County,New York,NY,United States,us
"Newark, NJ 07103",40.73883356,-74.18955644,"Newark, NJ 07103, United States of America",07103,Newark,Essex County,New Jersey,NJ,United States,us
"Oxford, Georgia 30054",33.6190031,-83.8674052,"Oxford, GA, United States of America",,Oxford,Newton County,Georgia,GA,United States,us
"Prairie View, TX 77446",30.0857916,-95.9907058,"Prairie View, TX 77446, United States of America",77446,Prairie View,Waller County,Texas,TX,United States,us
"Raleigh, NC 27695-8105",35.7803977,-78.6390989,"Raleigh, NC, United States of America",,Raleigh,Wake County,North Carolina,NC,United States,us
Riyadh Saudi Arabia 11533,24.638916,46.7160104,"Riyadh 11131, Saudi Arabia",11131,Riyadh,Riyadh governorate,Riyadh Region,,Saudi Arabia,sa
"Roswell, NM 88201",33.40429717,-104.5237373,"Roswell, NM 88201, United States of America",88201,Roswell,Chaves County,New Mexico,NM,United States,us
"Santa Barbara, CA 93105",34.44180114,-119.7329425,"Santa Barbara, CA 93105, United States of America",93105,Santa Barbara,Santa Barbara County,California,CA,United States,us
"Smithfield, RI 02917",41.88216251,-71.51569186,"Smithfield, RI 02917, United States of America",02917,Smithfield,Providence County,Rhode Island,RI,United States,us
"Sudaemun-ku, Seoul, 01 KR 120-749",35.69384,139.70355,"Shinjuku, Japan",,,Shinjuku,Tokyo,,Japan,jp
"Valdosta, GA 31698",30.84938045,-83.28974525,"Valdosta, GA 31698, United States of America",31698,Valdosta,Lowndes County,Georgia,GA,United States,us
"Williamsburg, VA 23187",37.2708788,-76.7074042,"Williamsburg, VA, United States of America",,Williamsburg,,Virginia,VA,United States,us
"Winchester, VA 22601",39.1852184,-78.1652404,"Winchester, VA 22601, United States of America",22601,Winchester,,Virginia,VA,United States,us
"Worcester, MA 16100",42.2625621,-71.8018877,"Worcester, MA, United States of America",,Worcester,Worcester County,Massachusetts,MA,United States,us
"Abbotsford, British Columbia, Canada",49.0521162,-122.329479,"Abbotsford, BC, Canada",,Abbotsford,Fraser Valley Regional District,British Columbia,BC,Canada,ca
"Aliso Viejo, CA 92656",33.5761376,-117.7258122,"Aliso Viejo, CA 92656, United States of America",92656,Aliso Viejo,Orange County,California,CA,United States,us
"Anaheim, CA 92801",33.84497161,-117.9540156,"Anaheim, CA 92801, United States of America",92801,Anaheim,Orange County,California,CA,United States,us
"Big Rapids, MI 49307",43.698078,-85.483656,"Big Rapids (Big Rapids), MI 49307, United States of America",49307,Big Rapids,Mecosta County,Michigan,MI,United States,us
"Bremerton, WA 98337",47.56777936,-122.6309986,"Bremerton, WA 98337, United States of America",98337,Bremerton,Kitsap County,Washington,WA,United States,us
"Calexico, CA 92231",32.6668134,-115.4963754,"Calexico, CA 92231, United States of America",92231,Calexico,Imperial County,California,CA,United States,us
"Charleston, IL 61920",39.4961458,-88.1761521,"Charleston (Charleston), IL 61920, United States of America",61920,Charleston,Coles County,Illinois,IL,United States,us
"Colorado Springs, CO 80840",38.8339578,-104.825348,"Colorado Springs, CO, United States of America",,Colorado Springs,El Paso County,Colorado,CO,United States,us
"Dallas, TX 75205",32.7762719,-96.7968559,"Dallas, TX, United States of America",,Dallas,Dallas County,Texas,TX,United States,us
"Denver, CO 80208",39.67750821,-104.9620933,"Denver, CO 80208, United States of America",80208,Denver,,Colorado,CO,United States,us
"Florence, AL 35632",34.809875,-87.6813356,"Florence, AL 35632, United States of America",35632,Florence,Lauderdale County,Alabama,AL,United States,us
"Garden City, NY 11530",40.7266477,-73.6343052,"Garden City, NY 11530, United States of America",11530,Garden City,Nassau County,New York,NY,United States,us
"Gary, Indiana 46408",41.6020962,-87.3370646,"Gary, IN, United States of America",,Gary,Lake County,Indiana,IN,United States,us
"Greensboro, NC 27402",36.06711065,-79.80727261,"Greensboro, NC 27402, United States of America",27402,Greensboro,Guilford County,North Carolina,NC,United States,us
"Halifax, NS B3K 3S9",44.65853385,-63.59422373,"Halifax, NS B3K 3S9, Canada",B3K 3S9,Halifax,Halifax County,Nova Scotia,NS,Canada,ca
"Haverford, PA",40.0131672,-75.2943516,"Haverford (Lower Merion Township), PA 19003, United States of America",19003,Lower Merion Township,Montgomery County,Pennsylvania,PA,United States,us
"Houston, TX 77004",29.72588526,-95.36789172,"Houston, TX 77004, United States of America",77004,Houston,Harris County,Texas,TX,United States,us
"Huntsville, Texas 77340",30.70532677,-95.53842848,"Huntsville, TX 77340, United States of America",77340,Huntsville,Walker County,Texas,TX,United States,us
"Ithaca, NY 14850",42.4396039,-76.4968019,"Ithaca, NY, United States of America",,Ithaca,Tompkins County,New York,NY,United States,us
"Jacksonville, FL 32224",30.3321838,-81.655651,"Jacksonville, FL 32224, United States of America",32224,Jacksonville,Duval County,Florida,FL,United States,us
"Jamaica, NY 11439",40.69149,-73.80569,"Jamaica, NY, United States of America",,Jamaica,Kings County,New York,NY,United States,us
"Karachi, Pakistan",33.202707,72.7941267,"Karachi (Karachi), PB, Pakistan",,Karachi,Rawalpindi District,Punjab,PB,Pakistan,pk
"Kearney, Nebraska 68847",40.70459165,-99.07449769,"Kearney, NE 68847, United States of America",68847,Kearney,Buffalo County,Nebraska,NE,United States,us
Kensington PA 15068,40.57209437,-79.73457037,"New Kensington, PA 15068, United States of America",15068,New Kensington,Westmoreland County,Pennsylvania,PA,United States,us
"Knoxville, TN 37996-0430",35.9603948,-83.9210261,"Knoxville, TN, United States of America",,Knoxville,Knox County,Tennessee,TN,United States,us
"Las Vegas, Nevada 89154",36.1672559,-115.148516,"Las Vegas, NV, United States of America",,Las Vegas,Clark County,Nevada,NV,United States,us
"Lewiston, New York 14109",43.172555,-79.035878,"Lewiston, NY, United States of America",,Lewiston,Niagara County,New York,NY,United States,us
"München, Germany",51.6066028,13.3125927,"München, BB, Germany",04938,München,Elbe-Elster,Brandenburg,BB,Germany,de
"Normal, Illinois 61761",40.51225922,-88.98463208,"Normal, IL 61761, United States of America",61761,Normal,McLean County,Illinois,IL,United States,us
"Northfield, VT 05663",44.14815346,-72.66030629,"Northfield, VT 05663, United States of America",05663,Northfield,Washington County,Vermont,VT,United States,us
"Omaha, NE 68106",41.24001136,-95.99835705,"Omaha, NE 68106, United States of America",68106,Omaha,Douglas County,Nebraska,NE,United States,us
"Orange, California 92866",33.78491936,-117.8446497,"Orange, CA 92866, United States of America",92866,Orange,Orange County,California,CA,United States,us
"Poughkeepsie, NY 12604",41.68642132,-73.89288145,"Poughkeepsie, NY 12604, United States of America",12604,Town of Poughkeepsie,Dutchess County,New York,NY,United States,us
Qatar,25.3336984,51.2295295,Qatar,,,,,,Qatar,qa
"Rochester, MN 55094",44.0234387,-92.4630182,"Rochester, MN, United States of America",,Rochester,Olmsted County,Minnesota,MN,United States,us
"Saint Louis, MO 63103",38.63203129,-90.21203429,"St. Louis, MO 63103, United States of America",63103,St. Louis,,Missouri,MO,United States,us
"Salt Lake City, UT",40.7596198,-111.886797,"Salt Lake City, UT, United States of America",,Salt Lake City,Salt Lake County,Utah,UT,United States,us
"San Antonio, TX 78224",29.34331089,-98.5388029,"San Antonio, TX 78224, United States of America",78224,San Antonio,Bexar County,Texas,TX,United States,us
"Seoul, South Korea",37.5666791,126.9782914,"Seoul, South Korea",,Seoul,,,,South Korea,kr
"Southfield, Michigan 48075",42.46283891,-83.2254127,"Southfield, MI 48075, United States of America",48075,Southfield,Oakland County,Michigan,MI,United States,us
"Toronto, Ontario M3J 1P3, Canada",43.6534817,-79.3839347,"Old Toronto, ON M3J 1P3, Canada",M3J 1P3,Old Toronto,Golden Horseshoe,Ontario,ON,Canada,ca
West Point. NY 10996,41.39242858,-73.96975461,"Highlands, NY 10996, United States of America",10996,Town of Highlands,Orange County,New York,NY,United States,us
"Allentown, PA",40.6022059,-75.4712794,"Allentown, PA, United States of America",,Allentown,Lehigh County,Pennsylvania,PA,United States,us
"Anchorage, AK",61.2163129,-149.894852,"Anchorage, AK, United States of America",,Anchorage,,Alaska,AK,United States,us
"Bluefield, WV",37.2698395,-81.2223195,"Bluefield (Bluefield), WV 24701, United States of America",24701,Bluefield,Mercer County,West Virginia,WV,United States,us
"Calgary, AB",51.0456064,-114.057541,"Calgary, AB, Canada",,Calgary,,Alberta,AB,Canada,ca
"Cedar Rapids, IA",41.9758872,-91.6704053,"Cedar Rapids, IA, United States of America",,Cedar Rapids,Linn County,Iowa,IA,United States,us
"Chestnut Hill, MA 02467",42.30523631,-71.15808973,"Brookline, MA 02467, United States of America",02467,Brookline,Norfolk County,Massachusetts,MA,United States,us
"Cincinnati, OH",39.1014537,-84.5124602,"Cincinnati, OH, United States of America",,Cincinnati,Hamilton County,Ohio,OH,United States,us
"Cleveland, OH",41.4996574,-81.6936772,"Cleveland, OH, United States of America",,Cleveland,Cuyahoga County,Ohio,OH,United States,us
"Commerce, TX",33.2436492,-95.9026927,"Commerce, TX 75428, United States of America",75428,Commerce,Hunt County,Texas,TX,United States,us
"Denver, CO 80221",39.78844061,-105.0199851,"Denver, CO 80221, United States of America",80221,Denver,,Colorado,CO,United States,us
"Fayetteville, NC 28311",35.13073943,-78.89684863,"Fayetteville, NC 28311, United States of America",28311,Fayetteville,Cumberland County,North Carolina,NC,United States,us
"Fort Worth, TX",32.753177,-97.3327459,"Fort Worth, TX, United States of America",,Fort Worth,Tarrant County,Texas,TX,United States,us
"Galveston, TX",29.3056996,-94.7933252,"Galveston, TX, United States of America",,Galveston,Galveston County,Texas,TX,United States,us
"Georgetown, TX",30.699333199999998,-97.69811402,"Georgetown, TX, United States of America",,Georgetown,Williamson County,Texas,TX,United States,us
"Hartford, CT",41.764582,-72.6908547,"Hartford, CT, United States of America",,Hartford,Capitol Planning Region,Connecticut,CT,United States,us
"High Point, NC",35.9556924,-80.0053176,"High Point, NC, United States of America",,High Point,Guilford County,North Carolina,NC,United States,us
"Houghton, MI",47.121872,-88.569012,"Houghton (Houghton), MI 49931, United States of America",49931,Houghton,Houghton County,Michigan,MI,United States,us
"Houston, TX",29.7589382,-95.3676974,"Houston, TX, United States of America",,Houston,Harris County,Texas,TX,United States,us
"Huntsville, AL",34.729847,-86.5859011,"Huntsville, AL, United States of America",,Huntsville,Madison County,Alabama,AL,United States,us
"Ithaca, NY",42.4396039,-76.4968019,"Ithaca, NY, United States of America",,Ithaca,Tompkins County,New York,NY,United States,us
"Jacksonville, AL",33.8137919,-85.7612872,"Jacksonville, AL 36265, United States of America",36265,Jacksonville,Calhoun County,Alabama,AL,United States,us
"Jamestown, NY 14701",42.09420036,-79.24437537,"Jamestown, NY 14701, United States of America",14701,Jamestown,Chautauqua County,New York,NY,United States,us
"Knoxville, TN",35.9603948,-83.9210261,"Knoxville, TN, United States of America",,Knoxville,Knox County,Tennessee,TN,United States,us
"Loretto, PA",40.5029161,-78.6314019,"Loretto (Loretto), PA, United States of America",,Loretto,Cambria County,Pennsylvania,PA,United States,us
"Louisville, KY",38.2542376,-85.759407,"Louisville, KY, United States of America",,Louisville,Jefferson County,Kentucky,KY,United States,us
"Lubbock, TX",33.5855677,-101.8470215,"Lubbock, TX, United States of America",,Lubbock,Lubbock County,Texas,TX,United States,us
Mayagüez P.R. 00681-9000,18.2030797,-67.1188205,"Mayagüez, PR 00681, United States of America",00681,Mayagüez,Mayagüez,Puerto Rico,PR,United States,us
"Mechanicsburg, PA",40.2101972,-77.0047276,"Mechanicsburg (Mechanicsburg), PA, United States of America",,Mechanicsburg,Cumberland County,Pennsylvania,PA,United States,us
"Memphis, TN 38112",35.14873949,-89.97617165,"Memphis, TN 38112, United States of America",38112,Memphis,Shelby County,Tennessee,TN,United States,us
"Mississauga, ON L5L 1C6, Canada",43.5514234,-79.6633407,"Mississauga, ON L5L 1C6, Canada",L5L 1C6,Mississauga,Peel Region,Ontario,ON,Canada,ca
"Moscow, ID",46.7323875,-117.000165,"Moscow (Moscow), ID, United States of America",,Moscow,Latah County,Idaho,ID,United States,us
"New Concord, OH",39.9934992,-81.7338559,"New Concord, OH 43762, United States of America",43762,New Concord,Muskingum County,Ohio,OH,United States,us
"New Orleans, LA",29.9759983,-90.0782127,"New Orleans, LA, United States of America",,New Orleans,Orleans Parish,Louisiana,LA,United States,us
"New York, NY",40.7127281,-74.0060152,"New York, NY, United States of America",,New York,,New York,NY,United States,us
"New York, NY 10458",40.86170562,-73.88876274,"New York, NY 10458, United States of America",10458,New York,,New York,NY,United States,us
"Newark, DE",39.6828358,-75.7515682,"Newark, DE, United States of America",,Newark,New Castle County,Delaware,DE,United States,us
"Notre Dame, IN 46556",41.6992003,-86.2373691,"Notre Dame (Notre Dame), IN 46556, United States of America",46556,Notre Dame,Saint Joseph County,Indiana,IN,United States,us
"Odessa, TX",31.8457149,-102.367687,"Odessa, TX, United States of America",,Odessa,Ector County,Texas,TX,United States,us
"Omaha, NE",41.2587459,-95.9383758,"Omaha, NE, United States of America",,Omaha,Douglas County,Nebraska,NE,United States,us
"Orange, CA",33.7872568,-117.850308,"Orange, CA, United States of America",,Orange,Orange County,California,CA,United States,us
"Oxford, GA",33.6190031,-83.8674052,"Oxford, GA, United States of America",,Oxford,Newton County,Georgia,GA,United States,us
"Palatine, IL",42.1105779,-88.0336888,"Palatine (Palatine), IL 60074, United States of America",60074,Palatine,Cook County,Illinois,IL,United States,us
"Pittsburgh, PA",40.4416941,-79.9900861,"Pittsburgh, PA, United States of America",,Pittsburgh,Allegheny County,Pennsylvania,PA,United States,us
"Providence, RI",41.8239891,-71.4128343,"Providence, RI, United States of America",,Providence,Providence County,Rhode Island,RI,United States,us
"Reading, PA",40.335345,-75.9279495,"Reading, PA, United States of America",,Reading,Berks County,Pennsylvania,PA,United States,us
"Saint Louis, MO",38.6280278,-90.1910154,"St. Louis, MO, United States of America",,St. Louis,,Missouri,MO,United States,us
"San Diego, CA",32.7174202,-117.162772,"San Diego, CA, United States of America",,San Diego,San Diego County,California,CA,United States,us
"San Juan, PR",18.402821,-66.05817,"San Juan, Puerto Rico, United States of America",,San Juan,San Juan,,,,pr
"Scranton, PA",41.4086874,-75.6621294,"Scranton, PA, United States of America",,Scranton,Lackawanna County,Pennsylvania,PA,United States,us
"Selinsgrove, PA",40.8062437,-76.8607084,"Selinsgrove (Selinsgrove), PA, United States of America",,Selinsgrove,Snyder County,Pennsylvania,PA,United States,us
"Shreveport, LA",32.5135356,-93.7477839,"Shreveport, LA, United States of America",,Shreveport,Caddo Parish,Louisiana,LA,United States,us
"Spartanburg, SC",34.9498007,-81.9320157,"Spartanburg, SC, United States of America",,Spartanburg,Spartanburg County,South Carolina,SC,United States,us
"St. George, Utah, 84770",37.104153,-113.584131,"St. George, UT, United States of America",,St. George,Washington County,Utah,UT,United States,us
"St. Peters, MO",38.791612,-90.5958468,"Saint Peters (Saint Peters), MO 63376, United States of America",63376,Saint Peters,Saint Charles County,Missouri,MO,United States,us
"Stillwater, OK",36.1156306,-97.0585717,"Stillwater, OK, United States of America",,Stillwater,Payne County,Oklahoma,OK,United States,us
"Storrs, CT",41.8084314,-72.2495231,"Storrs (Mansfield), CT 06269, United States of America",06269,Mansfield,Capitol Planning Region,Connecticut,CT,United States,us
"Tacoma, WA",47.2455013,-122.438329,"Tacoma, WA, United States of America",,Tacoma,Pierce County,Washington,WA,United States,us
"Valdosta, GA",30.8327022,-83.2784851,"Valdosta, GA, United States of America",,Valdosta,Lowndes County,Georgia,GA,United States,us
"Vancouver, BC V6T 1Z4, Canada",49.26035683448276,-123.2501352,"University of British Columbia, Electoral Area A, BC V6T, Canada",V6T,Electoral Area A,Metro Vancouver Regional District,British Columbia,BC,Canada,ca
"Vancouver, BC, Canada",49.2608724,-123.113952,"Vancouver, BC, Canada",,Vancouver,Metro Vancouver Regional District,British Columbia,BC,Canada,ca
"Vermillion, SD",42.7795273,-96.929101,"Vermillion, SD 57069, United States of America",57069,Vermillion,Clay County,South Dakota,SD,United States,us
"Victoria, Canada",48.4283182,-123.364953,"Victoria, BC, Canada",,Victoria,Capital Regional District,British Columbia,BC,Canada,ca
"Washington, DC",38.8950368,-77.0365427,"Washington, DC, United States of America",,Washington,,District of Columbia,DC,United States,us
"Washintgon, PA",40.860198,-77.838617,"Pennsylvania, United States of America",,,,Pennsylvania,PA,United States,us
"Wellesley Hills, MA",42.3130588,-71.2738201,"Wellesley Hills, Wellesley, MA, United States of America",02457,Wellesley,Norfolk County,Massachusetts,MA,United States,us
"Wenzhou, Zhejiang, China",27.9963899,120.695345,"Wenzhou, Zhejiang, China",,Wenzhou,,Zhejiang,,China,cn
"West Haven, CT",41.2706527,-72.9470471,"West Haven (West Haven), CT 06516, United States of America",06516,West Haven,South Central Connecticut Planning Region,Connecticut,CT,United States,us
"West Point, NY",40.8512481,-72.5359869,"West Point, Hampton Bays, NY 11946, United States of America",11946,Hampton Bays,Suffolk County,New York,NY,United States,us
"Wilmington, NC",34.2257282,-77.9447107,"Wilmington, NC, United States of America",,Wilmington,New Hanover County,North Carolina,NC,United States,us
"Winston Salem, NC",36.0998131,-80.2440518,"Winston-Salem, NC, United States of America",,Winston-Salem,Forsyth County,North Carolina,NC,United States,us
"Worchester, MA 01610",42.25453524,-71.81656621,"Worcester, MA 01610, United States of America",01610,Worcester,Worcester County,Massachusetts,MA,United States,us
"Yerevan, Armenia",40.1777112,44.5126233,"Yerevan, Armenia",,Yerevan,,,,Armenia,am
"Baltimore, MD 21204",39.2908816,-76.610759,"Baltimore, MD, United States of America",,Baltimore,,Maryland,MD,United States,us
"Bridgewater, VA",38.3820655,-78.9766975,"Bridgewater (Bridgewater), VA, United States of America",,Bridgewater,Rockingham County,Virginia,VA,United States,us
"Bronx, NY",40.8466508,-73.8785937,"The Bronx, New York, NY, United States of America",,New York,,New York,NY,United States,us
"Canton, NY",44.5956163,-75.1690942,"Canton, NY, United States of America",,Canton,Saint Lawrence County,New York,NY,United States,us
"Champaign-Urbana, IL",40.104535,-88.272157,"Champaign City Township (Champaign), IL, United States of America",,Champaign,Champaign County,Illinois,IL,United States,us
"Chengdu, China",30.6598628,104.0633717,"Chengdu, Sichuan, China",,Chengdu,,Sichuan,,China,cn
"Columbia, MO",38.951883,-92.3337366,"Columbia, MO, United States of America",,Columbia,Boone County,Missouri,MO,United States,us
"Costa Mesa, CA",33.6633386,-117.903317,"Costa Mesa, CA, United States of America",,Costa Mesa,Orange County,California,CA,United States,us
"Denver, CO 80204",39.7351039,-105.0261727,"Denver, CO 80204, United States of America",80204,Denver,,Colorado,CO,United States,us
"Fairmont, WV",39.4850848,-80.1425781,"Fairmont (Fairmont), WV 26554, United States of America",26554,Fairmont,Marion County,West Virginia,WV,United States,us
"Fort Lauderdale, FL",26.1223084,-80.1433786,"Fort Lauderdale, FL, United States of America",,Fort Lauderdale,Broward County,Florida,FL,United States,us
"Fredericksburg, VA",38.3031837,-77.4605399,"Fredericksburg, VA, United States of America",,Fredericksburg,,Virginia,VA,United States,us
"Frostburg, MD",39.6583325,-78.9284241,"Frostburg, MD 21532, United States of America",21532,Frostburg,Allegany County,Maryland,MD,United States,us
"Gambier, OH",40.375643,-82.3970994,"Gambier, OH, United States of America",,Gambier,Knox County,Ohio,OH,United States,us
"Glen Ellyn, IL",41.8775293,-88.0670118,"Glen Ellyn, IL 60137, United States of America",60137,Glen Ellyn,DuPage County,Illinois,IL,United States,us
"Golden, CO",39.7546349,-105.22058,"Golden, CO, United States of America",,Golden,Jefferson County,Colorado,CO,United States,us
"Greensburg, PA",40.3014581,-79.5389289,"Greensburg (Greensburg), PA 15601, United States of America",15601,Greensburg,Westmoreland County,Pennsylvania,PA,United States,us
"Greenville, NC",35.613224,-77.3724593,"Greenville (Greenville), NC, United States of America",,Greenville,Pitt County,North Carolina,NC,United States,us
"Hampden-Sydney, VA",37.2423746,-78.4597173,"Hampden Sydney, VA 23943, United States of America",23943,Hampden Sydney,Prince Edward County,Virginia,VA,United States,us
"Hanover, NH",43.7023545,-72.2892164,"Hanover, NH, United States of America",,Hanover,Grafton County,New Hampshire,NH,United States,us
"Hartsville, SC",34.3740431,-80.0734005,"Hartsville (Hartsville), SC 29550, United States of America",29550,Hartsville,Darlington County,South Carolina,SC,United States,us
Hattiesburg MS,31.3271189,-89.2903392,"Hattiesburg, MS, United States of America",,Hattiesburg,Forrest County,Mississippi,MS,United States,us
"Hattiesburg, MS",31.3271189,-89.2903392,"Hattiesburg, MS, United States of America",,Hattiesburg,Forrest County,Mississippi,MS,United States,us
"Henderson, NV",36.0319843,-114.9822486,"Henderson, NV, United States of America",,Henderson,Clark County,Nevada,NV,United States,us
"Indianapolis, IN",39.7683331,-86.1583502,"Indianapolis, IN, United States of America",,Indianapolis,Marion County,Indiana,IN,United States,us
"Irvine, CA",33.6856969,-117.825981,"Irvine, CA, United States of America",,Irvine,Orange County,California,CA,United States,us
"Jacksonville, FL",30.3321838,-81.655651,"Jacksonville, FL, United States of America",,Jacksonville,Duval County,Florida,FL,United States,us
"Jamestown, NY",42.0965167,-79.2380322,"Jamestown, NY, United States of America",,Jamestown,Chautauqua County,New York,NY,United States,us
"Johnson City, TN",36.3134398,-82.3534728,"Johnson City, TN, United States of America",,Johnson City,Washington County,Tennessee,TN,United States,us
"Kennesaw, GA",34.0234337,-84.6154897,"Kennesaw (Kennesaw), GA 30144, United States of America",30144,Kennesaw,Cobb County,Georgia,GA,United States,us
"Ketchikan, Alaska",55.3430696,-131.6466819,"Ketchikan (Ketchikan), AK 99901, United States of America",99901,Ketchikan,Ketchikan Gateway,Alaska,AK,United States,us
"Klamath Falls, OR",42.224867,-121.78167,"Klamath Falls, OR 97601, United States of America",97601,Klamath Falls,Klamath County,Oregon,OR,United States,us
"Kunshan, China",31.3869323,120.9764683,"Kunshan, Jiangsu, China",,Kunshan,,Jiangsu,,China,cn
"Lamoni, IA",40.6228083,-93.9342515,"Lamoni, IA 50140, United States of America",50140,Lamoni,Decatur County,Iowa,IA,United States,us
"Langston, OK",35.9450505,-97.2553142,"Langston (Langston), OK 73050, United States of America",73050,Langston,Logan County,Oklahoma,OK,United States,us
"Laredo, TX",27.5056251,-99.5074517,"Laredo, TX, United States of America",,Laredo,Webb County,Texas,TX,United States,us
"Las Vegas, NV",36.1672559,-115.148516,"Las Vegas, NV, United States of America",,Las Vegas,Clark County,Nevada,NV,United States,us
"Lawrence, KS",38.9719137,-95.2359403,"Lawrence, KS, United States of America",,Lawrence,Douglas County,Kansas,KS,United States,us
"Lima, OH",40.7399785,-84.105006,"Lima, OH, United States of America",,Lima,Allen County,Ohio,OH,United States,us
"Lincoln, NE",40.8088861,-96.7077751,"Lincoln, NE, United States of America",,Lincoln,Lancaster County,Nebraska,NE,United States,us
"Logan, UT",41.7313063,-111.834914,"Logan, UT, United States of America",,Logan,Cache County,Utah,UT,United States,us
"Macomb, IL",40.4588934,-90.6713939,"Macomb (Macomb), IL 61455, United States of America",61455,Macomb,McDonough County,Illinois,IL,United States,us
"Malibu, CA",34.035591,-118.689423,"Malibu, CA, United States of America",,Malibu,Los Angeles County,California,CA,United States,us
"Memphis, TN",35.1460249,-90.0517638,"Memphis, TN, United States of America",,Memphis,Shelby County,Tennessee,TN,United States,us
"Miami, OH",39.4347787,-84.5368907,"New Miami, OH, United States of America",,New Miami,Butler County,Ohio,OH,United States,us
"Middletown, PA",40.1997955,-76.7310903,"Middletown (Middletown), PA 17057, United States of America",17057,Middletown,Dauphin County,Pennsylvania,PA,United States,us
"Mississippi State, MS",33.4386876,-88.7943232,"Mississippi State University, 75 Mary Lee Lane, College Vista, MS 39762, United States of America",39762,College Vista,Oktibbeha County,Mississippi,MS,United States,us
"Mobile, AL",30.6913462,-88.0437509,"Mobile, AL, United States of America",,Mobile,Mobile County,Alabama,AL,United States,us
"Morgantown, WV",39.6296809,-79.9559437,"Morgantown, WV, United States of America",,Morgantown,Monongalia County,West Virginia,WV,United States,us
"Mount Pleasant, MI",43.597646,-84.7668495,"Mount Pleasant, MI, United States of America",,Mount Pleasant,Isabella County,Michigan,MI,United States,us
"Murfreesboro, TN",35.8460396,-86.3921096,"Murfreesboro, TN, United States of America",,Murfreesboro,Rutherford County,Tennessee,TN,United States,us
"Naperville, IL",41.7728699,-88.1479278,"Naperville, IL, United States of America",,Naperville,DuPage County,Illinois,IL,United States,us
"Nashville, TN",36.1622767,-86.7742984,"Nashville, TN, United States of America",,Nashville,Davidson County,Tennessee,TN,United States,us
"New Haven, CT",41.3082138,-72.9250518,"New Haven (New Haven), CT, United States of America",,New Haven,South Central Connecticut Planning Region,Connecticut,CT,United States,us
"New Paltz, NY",41.7464972,-74.0844894,"New Paltz, NY 12561, United States of America",12561,New Paltz,Ulster County,New York,NY,United States,us
"Newport, RI",41.4899827,-71.3137707,"Newport, RI 02840, United States of America",02840,Newport,Newport County,Rhode Island,RI,United States,us
"Norfolk, VA",36.8493695,-76.2899539,"Norfolk, VA, United States of America",,Norfolk,,Virginia,VA,United States,us
"North Andover, MA",42.6839894,-71.1127065,"North Andover, MA 01845, United States of America",01845,North Andover,Essex County,Massachusetts,MA,United States,us
"North Dartmouth, MA",41.6389926,-70.9703171,"North Dartmouth (Dartmouth), MA 02747, United States of America",02747,Dartmouth,Bristol County,Massachusetts,MA,United States,us
"Ogden, UT",41.2230048,-111.9738429,"Ogden, UT, United States of America",,Ogden,Weber County,Utah,UT,United States,us
"Orlando, FL",28.5421109,-81.3790304,"Orlando, FL, United States of America",,Orlando,Orange County,Florida,FL,United States,us
"Pasadena, TX, 77504",29.64878832,-95.18560944,"Pasadena, TX 77504, United States of America",77504,Pasadena,Harris County,Texas,TX,United States,us
"Philadelphia, PA",39.9527237,-75.1635262,"Philadelphia, PA, United States of America",,Philadelphia,Philadelphia County,Pennsylvania,PA,United States,us
"Pocatello, ID",42.8620287,-112.450627,"Pocatello, ID, United States of America",,Pocatello,Bannock County,Idaho,ID,United States,us
"Portland, OR",45.5202471,-122.674194,"Portland, OR, United States of America",,Portland,Multnomah County,Oregon,OR,United States,us
"Prescott, AZ",34.539984,-112.468812,"Prescott, AZ, United States of America",,Prescott,Yavapai County,Arizona,AZ,United States,us
"Queens, NY",40.7135078,-73.8283132,"Queens, New York, NY, United States of America",,New York,,New York,NY,United States,us
"Reno, NV",39.5261206,-119.8126581,"Reno, NV, United States of America",,Reno,Washoe County,Nevada,NV,United States,us
"Rio Grande Valley, TX",26.2647816,-98.16658177,"Shoppes at Rio Grande Valley, Edinburg, TX, United States of America",,Edinburg,Hidalgo County,Texas,TX,United States,us
"Rolla, MO",37.9509324,-91.7708076,"Rolla, MO, United States of America",,Rolla,Phelps County,Missouri,MO,United States,us
"Saint Charles, MO",38.783855,-90.481677,"Saint Charles, MO, United States of America",,Saint Charles,Saint Charles County,Missouri,MO,United States,us
"San Francisco, CA",37.7792588,-122.4193286,"San Francisco, CA, United States of America",,San Francisco,,California,CA,United States,us
"San Luis Obispo, CA",35.2827525,-120.659615,"San Luis Obispo, CA, United States of America",,San Luis Obispo,San Luis Obispo County,California,CA,United States,us
"San Marcos, CA",33.1352995,-117.1743395,"San Marcos, CA, United States of America",,San Marcos,San Diego County,California,CA,United States,us
"Slippery Rock, PA",41.0640395,-80.0564928,"Slippery Rock (Slippery Rock), PA, United States of America",,Slippery Rock,Butler County,Pennsylvania,PA,United States,us
"South Kingstown, RI",41.454944,-71.5394738,"South Kingstown, RI, United States of America",,South Kingstown,South County,Rhode Island,RI,United States,us
"Southfield, MI",42.4733689,-83.2218731,"Southfield (Southfield), MI, United States of America",,Southfield,Oakland County,Michigan,MI,United States,us
"Spokane, WA",47.6571934,-117.42351,"Spokane, WA, United States of America",,Spokane,Spokane County,Washington,WA,United States,us
"St. Cloud, MN",45.5616075,-94.1642004,"Saint Cloud, MN, United States of America",,Saint Cloud,Stearns County,Minnesota,MN,United States,us
"St. George, UT",37.104153,-113.584131,"St. George, UT, United States of America",,St. George,Washington County,Utah,UT,United States,us
"St. Paul, MN",44.9497487,-93.0931028,"Saint Paul, MN, United States of America",,Saint Paul,Ramsey County,Minnesota,MN,United States,us
"Stamford, CT",41.0534302,-73.5387341,"Stamford (Stamford), CT, United States of America",,Stamford,Western Connecticut Planning Region,Connecticut,CT,United States,us
"Staten Island, NY",40.5834557,-74.1496048,"Staten Island, New York, NY, United States of America",,New York,,New York,NY,United States,us
"Sterling, KS",38.2100112,-98.2070059,"Sterling, KS, United States of America",,Sterling,Rice County,Kansas,KS,United States,us
"Tallahassee, FL",30.4380832,-84.2809332,"Tallahassee, FL, United States of America",,Tallahassee,Leon County,Florida,FL,United States,us
"Tampa, FL",27.9477595,-82.458444,"Tampa, FL, United States of America",,Tampa,Hillsborough County,Florida,FL,United States,us
"Terre Haute, IN",39.4667025,-87.4139119,"Terre Haute, IN, United States of America",,Terre Haute,Vigo County,Indiana,IN,United States,us
"Toronto, ON, Canada",43.6534817,-79.3839347,"Toronto, ON, Canada",,Toronto,Golden Horseshoe,Ontario,ON,Canada,ca
"Troy, NY",42.7284117,-73.6917878,"Troy, NY, United States of America",,Troy,Rensselaer County,New York,NY,United States,us
"Tyler, TX",32.3512601,-95.3010624,"Tyler, TX, United States of America",,Tyler,Smith County,Texas,TX,United States,us
"University Park, PA",40.80201,-77.85639,"State College (University Park), PA, United States of America",,University Park,Centre County,Pennsylvania,PA,United States,us
"Vancouver, BC",49.2608724,-123.113952,"Vancouver, BC, Canada",,Vancouver,Metro Vancouver Regional District,British Columbia,BC,Canada,ca
"Wellesley, MA",42.2964859,-71.2925571,"Wellesley, MA, United States of America",,Wellesley,Norfolk County,Massachusetts,MA,United States,us
"West Chester, PA",39.9597213,-75.6059638,"West Chester (West Chester), PA 19383, United States of America",19383,West Chester,Chester County,Pennsylvania,PA,United States,us
"Winston-Salem, NC",36.0998131,-80.2440518,"Winston-Salem, NC, United States of America",,Winston-Salem,Forsyth County,North Carolina,NC,United States,us
"Worchester, MA",42.358752,-71.531484,"Massachusetts, United States of America",,,,Massachusetts,MA,United States,us
0,,,,,,,,,,
"Aurora, IL",41.7571701,-88.3147539,"Aurora, IL, United States of America",,Aurora,Kane County,Illinois,IL,United States,us
"Aurora, NY",42.7324505,-78.6315537,"Aurora, NY, United States of America",,Aurora,Erie County,New York,NY,United States,us
"Boston, MA",42.3554334,-71.060511,"Boston, MA, United States of America",,Boston,Suffolk County,Massachusetts,MA,United States,us
"Bourne, MA",41.7412166,-70.5989196,"Bourne, MA, United States of America",,Bourne,Barnstable County,Massachusetts,MA,United States,us
"Brookhaven, GA",33.8584368,-84.340203,"Brookhaven, GA, United States of America",,Brookhaven,DeKalb County,Georgia,GA,United States,us
"Carbondale, IL",37.7274692,-89.216655,"Carbondale (Carbondale), IL 62901, United States of America",62901,Carbondale,Jackson County,Illinois,IL,United States,us
"Claremont, CA",34.0966764,-117.7197785,"Claremont, CA 91711, United States of America",91711,Claremont,Los Angeles County,California,CA,United States,us
"Clemson, SC",34.6850749,-82.8364111,"Clemson, SC 29631, United States of America",29631,Clemson,Pickens County,South Carolina,SC,United States,us
"Clinton, NY",43.0484029,-75.3785034,"Kirkland (Clinton), NY, United States of America",,Clinton,Oneida County,New York,NY,United States,us
"Dartmouth, MA",41.6332267,-70.9879928,"Dartmouth, MA, United States of America",,Dartmouth,Bristol County,Massachusetts,MA,United States,us
"Davidson, NC",35.4992614,-80.8485218,"Davidson (Davidson), NC, United States of America",,Davidson,Mecklenburg County,North Carolina,NC,United States,us
"Decatur, GA",33.7737582,-84.296069,"Decatur (Decatur), GA 30030, United States of America",30030,Decatur,DeKalb County,Georgia,GA,United States,us
"Edinburg, TX",26.3013982,-98.1624501,"Edinburg, TX, United States of America",,Edinburg,Hidalgo County,Texas,TX,United States,us
"Fresno, CA",36.7394421,-119.78483,"Fresno, CA, United States of America",,Fresno,Fresno County,California,CA,United States,us
"Fulton, MS",34.2739933,-88.4092133,"Fulton, MS 38843, United States of America",38843,Fulton,Itawamba County,Mississippi,MS,United States,us
"Georgetown, KY",38.2099837,-84.5597128,"Georgetown, KY 40324, United States of America",40324,Georgetown,Scott County,Kentucky,KY,United States,us
"Harrisonburg, VA",38.4493315,-78.8688833,"Harrisonburg, VA, United States of America",,Harrisonburg,,Virginia,VA,United States,us
"Harve, MT",47.001265,-109.645406,"Montana, United States of America",,,,Montana,MT,United States,us
"Havre, MT",48.5536972,-109.677802,"Havre, MT, United States of America",,Havre,Hill County,Montana,MT,United States,us
"Hempstead, NY",40.6736812,-73.6190736,"Hempstead, NY, United States of America",,Hempstead,Nassau County,New York,NY,United States,us
"Honolulu, HI",21.304547,-157.855676,"Honolulu, HI 96813, United States of America",96813,Honolulu,Honolulu County,Hawaii,HI,United States,us
"Kearny, NE",40.7684342,-74.1454214,"Kearny (Kearny), NJ 07032, United States of America",07032,Kearny,Hudson County,New Jersey,NJ,United States,us
"Kent, OH",41.1513108,-81.3578047,"Kent, OH, United States of America",,Kent,Portage County,Ohio,OH,United States,us
"Lafayette, LA",30.2262187,-92.0178202,"Lafayette, LA, United States of America",,Lafayette,Lafayette Parish,Louisiana,LA,United States,us
"Los Angeles, CA",34.0536909,-118.242766,"Los Angeles, CA, United States of America",,Los Angeles,Los Angeles County,California,CA,United States,us
"Marquette, MI",46.5434914,-87.396433,"Marquette, MI 49855, United States of America",49855,Marquette,Marquette County,Michigan,MI,United States,us
"McAllen, TX",26.204114,-98.2300605,"McAllen, TX, United States of America",,McAllen,Hidalgo County,Texas,TX,United States,us
"Minneapolis, MN",44.9772995,-93.2654692,"Minneapolis, MN, United States of America",,Minneapolis,Hennepin County,Minnesota,MN,United States,us
"Murfeesboro, TN",35.820245,-86.343764,"Tennessee, United States of America",,,,Tennessee,TN,United States,us
"Northfield, VT",44.1486362,-72.6569682,"Northfield, VT, United States of America",,Northfield,Washington County,Vermont,VT,United States,us
"Orem, UT",40.2981599,-111.6944313,"Orem, UT, United States of America",,Orem,Utah County,Utah,UT,United States,us
"Pullman, WA",46.7304268,-117.173895,"Pullman (Pullman), WA, United States of America",,Pullman,Whitman County,Washington,WA,United States,us
"Raleigh, NC",35.7803977,-78.6390989,"Raleigh, NC, United States of America",,Raleigh,Wake County,North Carolina,NC,United States,us
"Rock Hill, SC",34.9248667,-81.0250784,"Rock Hill, SC, United States of America",,Rock Hill,York County,South Carolina,SC,United States,us
"Rocky Mount, NC",35.9423833,-77.7956949,"Rocky Mount, NC, United States of America",,Rocky Mount,Edgecombe County,North Carolina,NC,United States,us
"Rutherford County, TN",35.8563421,-86.4205249,"Rutherford, TN, United States of America",,,Rutherford,Tennessee,TN,United States,us
"San Marcos, TX",29.8826436,-97.9405828,"San Marcos (San Marcos), TX 78666, United States of America",78666,San Marcos,Hays County,Texas,TX,United States,us
"Seattle, WA",47.6038321,-122.330062,"Seattle, WA, United States of America",,Seattle,King County,Washington,WA,United States,us
"St. Louis, MO",38.6280278,-90.1910154,"St. Louis, MO, United States of America",,St. Louis,,Missouri,MO,United States,us
"Stony Brook, NY",40.9256538,-73.140943,"Stony Brook (Brookhaven), NY, United States of America",,Town of Brookhaven,Suffolk County,New York,NY,United States,us
"Towson, MD",39.4018513,-76.6023803,"Towson, MD 21252, United States of America",21252,Towson,Baltimore County,Maryland,MD,United States,us
"Urbana, IL",40.1117174,-88.207301,"Urbana, IL, United States of America",,Urbana,Champaign County,Illinois,IL,United States,us
"Winona Lake, IN",41.2272668,-85.8219345,"Winona Lake (Winona Lake), IN 46590, United States of America",46590,Winona Lake,Kosciusko County,Indiana,IN,United States,us
"Winter Park, FL",28.5977707,-81.3510264,"Winter Park, Winter Park, FL, United States of America",,Winter Park,Orange County,Florida,FL,United States,us
"Brookline, MA",42.3329021,-71.1187421,"Brookline, MA, United States of America",,Brookline,Norfolk County,Massachusetts,MA,United States,us
"Cambridge, MA",42.3656347,-71.1040018,"Cambridge, MA, United States of America",,Cambridge,Middlesex County,Massachusetts,MA,United States,us
"Center Valley, PA",40.7072869,-79.5697679,"Center Valley (Bethel Township), PA, United States of America",,Bethel Township,Armstrong County,Pennsylvania,PA,United States,us
"Charleston, SC",32.7884363,-79.9399309,"Charleston, SC, United States of America",,Charleston,Charleston County,South Carolina,SC,United States,us
"Chester, PA",39.849557,-75.3557458,"Chester, PA 19013, United States of America",19013,Chester,Delaware County,Pennsylvania,PA,United States,us
"Durango, CO",37.2395367,-107.8215818,"Durango, CO, United States of America",,Durango,La Plata County,Colorado,CO,United States,us
"Fort Collins, CO",40.5871782,-105.0770113,"Fort Collins, CO, United States of America",,Fort Collins,Larimer County,Colorado,CO,United States,us
"Geneseo, NY",42.795896,-77.816947,"Geneseo, NY, United States of America",,Geneseo,Livingston County,New York,NY,United States,us
"Greeley, CO",40.4233142,-104.7091322,"Greeley (Greeley), CO, United States of America",,Greeley,Weld County,Colorado,CO,United States,us
"Hamilton, NY",42.8268798,-75.5444159,"Hamilton, NY, United States of America",,Hamilton,Madison County,New York,NY,United States,us
"Hattiesburg, MI",43.924812,-84.633107,"Michigan, United States of America",,,,Michigan,MI,United States,us
"Hays, KS",38.8791783,-99.3267702,"Hays (Hays), KS 67601, United States of America",67601,Hays,Ellis County,Kansas,KS,United States,us
"Huntsville, TX",30.7235263,-95.5507771,"Huntsville, TX, United States of America",,Huntsville,Walker County,Texas,TX,United States,us
"Jacksonville, IL",39.7343697,-90.228782,"Jacksonville, IL 62650, United States of America",62650,Jacksonville,Morgan County,Illinois,IL,United States,us
"Lebanon, IL",38.6039375,-89.8073195,"Lebanon, IL 62254, United States of America",62254,Lebanon,Saint Clair County,Illinois,IL,United States,us
"Little Rock, AR",34.7465071,-92.2896267,"Little Rock, AR, United States of America",,Little Rock,Pulaski County,Arkansas,AR,United States,us
"Madison, SD",44.006085,-97.11395,"Madison, SD, United States of America",,Madison,Lake County,South Dakota,SD,United States,us
"Madison, WI",43.074761,-89.3837613,"Madison, WI, United States of America",,Madison,Dane County,Wisconsin,WI,United States,us
"Martin, TN",36.3432777,-88.8503514,"Martin (Martin), TN, United States of America",,Martin,Weakley County,Tennessee,TN,United States,us
"Murray, KY",36.6105066,-88.3151539,"Murray (Murray), KY, United States of America",,Murray,Calloway County,Kentucky,KY,United States,us
"Norman, OK",35.2225717,-97.4394816,"Norman, OK, United States of America",,Norman,Cleveland County,Oklahoma,OK,United States,us
"Oberlin, OH",41.2939386,-82.2173786,"Oberlin, OH 44074, United States of America",44074,Oberlin,Lorain County,Ohio,OH,United States,us
"Old Westbury, NY",40.7887113,-73.5995717,"Old Westbury, NY 11568, United States of America",11568,Old Westbury,Nassau County,New York,NY,United States,us
"Oxford, OH",39.5103048,-84.7420519,"Oxford, OH 45056, United States of America",45056,Oxford,Butler County,Ohio,OH,United States,us
"Prince George, British Columbia, Canada",53.9128645,-122.7453699,"Prince George, BC, Canada",,Prince George,Regional District of Fraser-Fort George,British Columbia,BC,Canada,ca
"Rockford, IL",42.2713945,-89.093966,"Rockford, IL, United States of America",,Rockford,Winnebago County,Illinois,IL,United States,us
"Rolla, MS",55.8979789,-120.1398733,"Rolla (Area D (Kiskatinaw Valley)), BC V0C 2G0, Canada",V0C 2G0,Area D (Kiskatinaw Valley),Peace River Regional District,British Columbia,BC,Canada,ca
"Romeoville, IL",41.6475306,-88.0895061,"Romeoville, IL 60446, United States of America",60446,Romeoville,Will County,Illinois,IL,United States,us
"Salina, KS",38.8402805,-97.6114237,"Salina (Salina), KS 67401, United States of America",67401,Salina,Saline County,Kansas,KS,United States,us
"Santa Barbara, CA",34.4221319,-119.702667,"Santa Barbara, CA, United States of America",,Santa Barbara,Santa Barbara County,California,CA,United States,us
"Santa Clara, CA",37.3541132,-121.955174,"Santa Clara, CA, United States of America",,Santa Clara,Santa Clara County,California,CA,United States,us
"Santa Cruz, CA",36.9743626,-122.0294673,"Santa Cruz, CA, United States of America",,Santa Cruz,Santa Cruz County,California,CA,United States,us
"Seguin, TX",29.5688411,-97.9647269,"Seguin, TX, United States of America",,Seguin,Guadalupe County,Texas,TX,United States,us
"Starkville, MS",33.4638745,-88.8152074,"Starkville (Starkville), MS 39759, United States of America",39759,Starkville,Oktibbeha County,Mississippi,MS,United States,us
"Sumner County, TN",36.4496718,-86.4685413,"Sumner, TN, United States of America",,,Sumner,Tennessee,TN,United States,us
"Tooele, UT",40.5307776,-112.29828,"Tooele, UT 84074, United States of America",84074,Tooele,Tooele County,Utah,UT,United States,us
"Tuscon, AZ",34.255149,-111.62621,"Arizona, United States of America",,,,Arizona,AZ,United States,us
"Washington, D.C.",38.82652,-77.01712,"Washington, DC, United States of America",,Washington,District of Columbia,District of Columbia,DC,United States,us
"Wenham, MA",42.6046209,-70.8873511,"Wenham, MA 01984, United States of America",01984,Wenham,Essex County,Massachusetts,MA,United States,us
"West Liberty, WV",40.169794,-80.5936851,"West Liberty (West Liberty), WV, United States of America",,West Liberty,Ohio County,West Virginia,WV,United States,us
"Wichita Falls, TX",33.9004572,-98.5020777,"Wichita Falls, TX, United States of America",,Wichita Falls,Wichita County,Texas,TX,United States,us
"Williamsport, PA",41.2411556,-77.0011096,"Williamsport, PA, United States of America",,Williamsport,Lycoming County,Pennsylvania,PA,United States,us
"York, PA",39.962493,-76.7276989,"York, PA 17401, United States of America",17401,York,York County,Pennsylvania,PA,United States,us
"DeKalb, IL",41.9298644,-88.7501925,"DeKalb, IL 60115, United States of America",60115,DeKalb,DeKalb County,Illinois,IL,United States,us
"Glenville, WV",38.9342573,-80.8376033,"Glenville (Glenville), WV 26351, United States of America",26351,Glenville,Gilmer County,West Virginia,WV,United States,us
"Greensboro, NC",36.0726355,-79.7919754,"Greensboro, NC, United States of America",,Greensboro,Guilford County,North Carolina,NC,United States,us
Hayward CA,37.6688205,-122.080796,"Hayward, CA, United States of America",,Hayward,Alameda County,California,CA,United States,us
"Henan Province, China",34.0000001,113.9999999,"Henan, China",,,,Henan,,China,cn
"Highland Heights, KY",39.0330902,-84.4521512,"Highland Heights, KY 41099, United States of America",41099,Highland Heights,Campbell County,Kentucky,KY,United States,us
"Kelburn, Wellington, New Zealand",-41.289205,174.7623927,"Kelburn, Wellington, WGN, New Zealand",6012,Wellington,Wellington City,Wellington,WGN,New Zealand,nz
"La Crosse, WI",43.8122836,-91.2514355,"La Crosse, WI, United States of America",,La Crosse,La Crosse County,Wisconsin,WI,United States,us
"Laramie, WY",41.3116442,-105.5917876,"Laramie, WY, United States of America",,Laramie,Albany County,Wyoming,WY,United States,us
"Miami, FL",25.7741728,-80.19362,"Miami, FL, United States of America",,Miami,Miami-Dade County,Florida,FL,United States,us
"Northfield, MN",44.4582041,-93.161159,"Northfield (Northfield), MN 55057, United States of America",55057,Northfield,Rice County,Minnesota,MN,United States,us
"Oxford, United Kingdom",51.7520131,-1.2578499,"Oxford, ENG, United Kingdom",,Oxford,Oxfordshire,England,ENG,United Kingdom,gb
"Paris, France",48.8534951,2.3483915,"Paris, IDF, France",,Paris,,Ile-de-France,IDF,France,fr
"Pembroke, NC",34.6800748,-79.1933485,"Pembroke, NC 27372, United States of America",27372,Pembroke,Robeson County,North Carolina,NC,United States,us
"Peoria, IL",40.6938609,-89.5891008,"Peoria, IL, United States of America",,Peoria,Peoria County,Illinois,IL,United States,us
"Sarasota, FL",27.3365805,-82.5308545,"Sarasota, FL, United States of America",,Sarasota,Sarasota County,Florida,FL,United States,us
"Springfield, MA",42.1018764,-72.5886727,"Springfield, MA, United States of America",,Springfield,Hampden County,Massachusetts,MA,United States,us
"St. Mary's City, MD",38.18649205,-76.43012002,"Saint Mary's City, Saint Mary's County, MD 20686, United States of America",20686,,Saint Mary's County,Maryland,MD,United States,us
"Syracuse, NY",43.0481221,-76.1474244,"Syracuse, NY, United States of America",,Syracuse,Onondaga County,New York,NY,United States,us
"Valedosta, GA",32.53951,-83.380775,"Georgia, United States of America",,,,Georgia,GA,United States,us
"Villanova, PA",41.9591678,8.668422,"20167 Villanova, France",20167,Villanova,South Corsica,Corsica,COR,France,fr
"Wenzhou,China",27.9963899,120.695345,"Wenzhou, Zhejiang, China",,Wenzhou,,Zhejiang,,China,cn
"Wichita Falls, Texas",33.9004572,-98.5020777,"Wichita Falls, TX, United States of America",,Wichita Falls,Wichita County,Texas,TX,United States,us
"Wichita, KS",37.6922361,-97.3375448,"Wichita, KS, United States of America",,Wichita,Sedgwick County,Kansas,KS,United States,us